Name,Registration number,City,Address,Longitude,Latitude,Annual Turnover,Industry,Ultimate Beneficiary id,Role,Street Reference,Street nr
Criteo Inc,77-1331801,Delray Beach,"958 Barwick Road, Delray Beach, Florida",-80.11434,26.47302,6009566.59,Telecommunications Equipment,38-3749416,Client,1111,958
Mellow Inc,06-9829795,Fort Lauderdale,"1734 Northeast 27th Court, Fort Lauderdale, Florida",-80.11151,26.16309,9702986.09,Biotechnology: Electromedical & Electrotherapeutic Apparatus,49-6574770,Client,2410,1734
Shoes and Socks ltd,68-4070916,Edgewater,"1427 Highland Avenue, Edgewater, Florida",-80.91376,28.99879,2044338.73,Real Estate Investment Trusts,73-6902520,Client,1999,1427
"Schiller, Marvin and Hoeger",30-6041060,Kendall,"1890 Southwest 113th Court Circle, Kendall, Florida",-80.37612,25.70035,5550825.26,Water Supply,32-5863581,Client,3902,1890
"Rogahn, Ullrich and Rowe",41-3323134,Kendall,"1594 Sw 119th Path, Kendall, Florida",-80.38749,25.69238,2986978.89,,37-9503202,Client,4236,1594
Abbott-Watsica,39-4159545,Deerfield Beach,"1674 Tilford Court, Deerfield Beach, Florida",-80.14662,26.31083,7092987.76,Major Pharmaceuticals,88-4601440,Client,1010,1674
"Grant, Dach and Schneider",61-5424307,Fort Lauderdale,"1688 Southwest 14th Avenue, Fort Lauderdale, Florida",-80.15879,26.09306,4533643.22,Diversified Commercial Services,42-0069329,Client,2918,1688
Bogan Inc,60-9305531,Pinecrest,"21 Southwest 58th Avenue, Pinecrest, Florida",-80.28537,25.64685,3903877.57,Electrical Products,82-0938138,Client,5949,21
Kulas Inc,10-6309408,Pompano Beach,"1623 Holiday Village Mhp, Pompano Beach, Florida",-80.13423,26.20749,8187271.18,,52-8939475,Client,6119,1623
Wolf-Roob,68-1335132,Delray Beach,"1428 Miami Boulevard, Delray Beach, Florida",-80.07143,26.44655,4750159.83,,14-7947022,Client,1432,1428
Conroy Group,90-0662221,Fort Lauderdale,"1667 Southeast 2nd Street, Fort Lauderdale, Florida",-80.13265,26.12117,369482.61,,70-0454204,Client,2878,1667
Marquardt Group,19-2182703,Pinecrest,"800 Southwest 74th Court, Pinecrest, Florida",-80.31581,25.67049,1122183.13,,61-8842573,Client,6004,800
Gorczany Group,36-6366860,Pinecrest,"1420 Southwest 78th Court, Pinecrest, Florida",-80.32150,25.66740,8058912.01,Specialty Foods,04-3964795,Client,6018,1420
Walsh and Sons,31-6307604,Homestead,"1949 Northeast 1st Street, Homestead, Florida",-80.44330,25.47050,5422023.43,Marine Transportation,09-6042427,Client,3227,1949
Abernathy-Buckridge,92-5287516,Pompano Beach,"329 Terra Mar Drive, Pompano Beach, Florida",-80.09336,26.21621,9171394.82,Major Banks,36-5013594,Client,6673,329
Schmidt-Rohan,54-3727950,Palmetto Bay,"1456 Southwest 167th Street, Palmetto Bay, Florida",-80.34351,25.61476,1107125.33,Services-Misc. Amusement & Recreation,78-0855566,Client,5690,1456
Konopelski-Champlin,11-8762716,Miami,"683 Saint Gaudens Court, Miami, Florida",-80.24920,25.71731,5217703,Oil & Gas Production,23-4716969,Client,4871,683
"Kuphal, Grady and Treutel",08-6053547,Edgewater,"259 Cardinal Drive, Edgewater, Florida",-80.89711,28.96449,1152450,Computer Manufacturing,17-3260527,Client,1940,259
"Hettinger, Halvorson and Veum",58-0000143,Kendall,"1768 Southwest 96th Avenue, Kendall, Florida",-80.34970,25.65417,3218868.67,,98-4406605,Client,4207,1768
"Brown, Botsford and Pagac",11-0883143,Pinecrest,"1441 Southwest 80th Avenue, Pinecrest, Florida",-80.32416,25.65030,282281.29,Other Consumer Services,86-1742238,Client,6020,1441
"Kautzer, Trantow and Barton",82-6074026,Deerfield Beach,"1131 Northeast 11th Way, Deerfield Beach, Florida",-80.08926,26.31850,4228828.94,Medical Electronics,09-2437308,Client,530,1131
Nolan Group,85-9979451,Pompano Beach,"1233 Northeast 14th Terrace, Pompano Beach, Florida",-80.10412,26.28579,7929247.44,Package Goods/Cosmetics,63-3538135,Client,6172,1233
"Marquardt, Russel and O'Connell",18-1227469,Palmetto Bay,"1369 Southwest 166th Street, Palmetto Bay, Florida",-80.33138,25.61591,9012227.49,Specialty Chemicals,30-3308786,Client,5686,1369
Bednar-Batz,91-7130352,Fort Lauderdale,"42 Northeast 39th Street, Fort Lauderdale, Florida",-80.10448,26.17695,8061251.09,Business Services,21-9817304,Client,2446,42
"Streich, Skiles and Cremin",44-4380746,Pompano Beach,"1520 South Riverside Drive, Pompano Beach, Florida",-80.09317,26.23040,4001565.81,"Computer Software: Programming, Data Processing",42-8394307,Client,6526,1520
"Lindgren, Reinger and McCullough",70-2225791,Delray Beach,"389 Park Avenue, Delray Beach, Florida",-80.07186,26.44654,7419449.6,Major Chemicals,53-3130163,Client,1627,389
Cremin-Fritsch,86-1127527,Deerfield Beach,"1332 Northwest 45th Avenue, Deerfield Beach, Florida",-80.16586,26.32153,3413544.73,Auto Manufacturing,06-4133104,Client,706,1332
"Hauck, Erdman and Turcotte",79-0443764,Pompano Beach,"985 Northwest 10th Street, Pompano Beach, Florida",-80.12899,26.24041,3537477.49,Major Banks,56-5079430,Client,6323,985
O'Keefe-Jones,42-5241147,Cutler Bay,"910 Southwest 85th Pass, Cutler Bay, Florida",-80.32907,25.57204,5544541.1,Investment Managers,74-2306182,Client,271,910
Hickle Inc,52-5142625,Fort Lauderdale,"1720 East Oak Park Access Road, Fort Lauderdale, Florida",-80.10677,26.16768,214910.9,Integrated oil Companies,57-2356606,Client,2233,1720
Bogan-Windler,04-7128793,Pinecrest,"405 Southwest 88th Terrace, Pinecrest, Florida",-80.30362,25.68846,7784068.84,Finance: Consumer Services,75-6441152,Client,6034,405
Connelly Inc,63-2360921,Homestead,"271 Adams Terrace, Homestead, Florida",-80.46238,25.46069,1549714.06,Commercial Banks,03-8431463,Client,3111,271
Heidenreich Inc,68-7543072,Cutler Bay,"571 Belville Road, Cutler Bay, Florida",-80.35318,25.59241,5468027.45,,34-9409910,Client,19,571
"Glover, Murphy and Hudson",72-4926537,Miami,"297 Northeast 3rd Court, Miami, Florida",-80.18993,25.84272,9717623.84,Other Consumer Services,17-1750290,Client,4492,297
Friesen Inc,62-9860882,Miami,"685 Opechee Drive, Miami, Florida",-80.22374,25.74383,1915926.66,Newspapers/Magazines,94-5799833,Client,4830,685
Pacocha-Hintz,92-0155673,Homestead,"1986 Laura Lane, Homestead, Florida",-80.45850,25.47365,9442628.63,Pollution Control Equipment,29-9389700,Client,3144,1986
"Buckridge, Hilpert and Hettinger",16-2697024,Kendall,"1017 Southwest 77th Avenue, Kendall, Florida",-80.31911,25.68198,5180933.67,Real Estate,81-4838916,Client,4074,1017
Zulauf-Friesen,58-3465654,Homestead,"1157 Northeast 42nd Terrace, Homestead, Florida",-80.41326,25.48032,5594081.44,Commercial Banks,58-5578673,Client,3304,1157
"Schamberger, Prosacco and Lubowitz",42-5118801,Cutler Bay,"985 Southwest 87th Avenue, Cutler Bay, Florida",-80.33165,25.57546,5275209.52,,62-3896694,Client,278,985
Klein-Wunsch,54-5278888,Pinecrest,"372 Palmetto Expressway, Pinecrest, Florida",-80.31470,25.68039,2699498.12,Other Consumer Services,86-1521345,Client,5851,372
Hauck-Jaskolski,41-6972134,Miami,"273 Southwest 24th Terrace, Miami, Florida",-80.24525,25.74594,8416450.73,Biotechnology: Biological Products (No Diagnostic Substances),78-8499027,Client,4977,273
Waters LLC,38-1649671,Pinecrest,"1793 Southwest 101st Street, Pinecrest, Florida",-80.30757,25.67698,8218274.71,Major Banks,61-0443816,Client,5860,1793
Okuneva Group,95-2864118,Kendall,"1360 Southwest 92nd Street, Kendall, Florida",-80.35222,25.68375,7285756.8,Military/Government/Technical,26-5635826,Client,4181,1360
"Herman, Casper and O'Kon",49-8410630,Pompano Beach,"1052 Birdie Lane, Pompano Beach, Florida",-80.16624,26.23889,1419084.59,Package Goods/Cosmetics,06-4341737,Client,6067,1052
Dare and Sons,17-4250984,Miami,"666 Northwest 66th Street, Miami, Florida",-80.20864,25.83524,7416687.66,Rental/Leasing Companies,76-9979521,Client,4782,666
"Wiza, Hodkiewicz and Kilback",22-6501522,Homestead,"1489 Southeast 6th Road, Homestead, Florida",-80.46857,25.46883,8688180.88,Pollution Control Equipment,71-6033832,Client,3626,1489
Bauch Inc,41-5453960,Pompano Beach,"1180 Northeast 33rd Court, Pompano Beach, Florida",-80.10710,26.27241,1707808.59,Biotechnology: Commercial Physical & Biological Resarch,05-6062299,Client,6260,1180
Runolfsdottir and Sons,39-8996965,Miami Gardens,"1980 Northwest 181st Street, Miami Gardens, Florida",-80.22840,25.94002,7440802.99,Medical/Dental Instruments,77-5849768,Client,5306,1980
Bernhard-Schulist,83-7508680,Delray Beach,"185 Brooks Lane, Delray Beach, Florida",-80.06299,26.44382,3602721.47,Advertising,77-7088852,Client,1145,185
Maggio-Conroy,44-8761006,Kendall,"667 Marion Road, Kendall, Florida",-80.38190,25.68729,1109652.41,Major Banks,86-8460478,Client,3768,667
"Spencer, Little and Johnson",90-8025709,Deerfield Beach,"1344 Northeast 52nd Street, Deerfield Beach, Florida",-80.12058,26.29514,7644270.15,Property-Casualty Insurers,26-3502260,Client,598,1344
Hoppe-Botsford,64-6745104,Pompano Beach,"1425 Southwest 26 Avenue, Pompano Beach, Florida",-80.15721,26.21241,4393674.94,,26-6840830,Client,6624,1425
"Langworth, McDermott and Osinski",80-0380835,Cutler Bay,"770 Southwest 85th Path, Cutler Bay, Florida",-80.32971,25.56733,3548796.19,Natural Gas Distribution,27-7577685,Client,273,770
"Ledner, Kihn and Schulist",67-0131695,Pompano Beach,"1450 Northeast 27th Court, Pompano Beach, Florida",-80.10389,26.26551,9348223.7,Real Estate Investment Trusts,09-5721533,Client,6238,1450
"Nicolas, Konopelski and Wolf",03-7986625,Edgewater,"144 Oakridge Avenue, Edgewater, Florida",-80.91233,28.99840,4322906.87,Electrical Products,00-4961300,Client,2054,144
"Medhurst, Sanford and Padberg",05-9249858,Delray Beach,"88 West Latitude Circle, Delray Beach, Florida",-80.07506,26.42562,5591076.42,Biotechnology: Electromedical & Electrotherapeutic Apparatus,69-9481829,Client,1870,88
"Bednar, Block and Jakubowski",89-1516842,Delray Beach,"1766 Northeast 21st Street, Delray Beach, Florida",-80.06822,26.48501,6179411.51,Professional Services,31-8014324,Client,1475,1766
Kuhlman-Schulist,47-7263705,Fort Lauderdale,"722 Southwest 36th Way, Fort Lauderdale, Florida",-80.19564,26.10194,6608081.6,Auto Manufacturing,82-2686383,Client,3028,722
"Wolff, Greenholt and Stanton",36-2695418,Delray Beach,"1649 Northwest 28th Avenue, Delray Beach, Florida",-80.10263,26.47999,4010678.35,Department/Specialty Retail Stores,28-6717738,Client,1548,1649
Fisher-Reilly,56-0755589,Miami,"1332 Northwest 32nd Avenue, Miami, Florida",-80.24766,25.78416,4562661.32,Containers/Packaging,85-4156279,Client,4681,1332
Feeney LLC,48-4362894,Homestead,"224 NE 3rd Drive, Homestead, Florida",-80.43829,25.47327,7156595.42,Business Services,24-1990792,Client,3173,224
Crooks-Bayer,38-9420028,Homestead,"1101 Northeast 7th Street, Homestead, Florida",-80.42664,25.47687,9094050.99,Major Banks,05-8940738,Client,3318,1101
"Lind, Lang and Morissette",87-6047072,Miami,"1467 Southwest 71st Court, Miami, Florida",-80.31038,25.76482,8090722.37,Department/Specialty Retail Stores,21-4586108,Client,5091,1467
Willms LLC,09-6395557,Deerfield Beach,"1398 Southwest 32nd Terrace, Deerfield Beach, Florida",-80.14732,26.31569,945667.65,Air Freight/Delivery Services,67-6342432,Client,958,1398
"Thiel, Fritsch and King",00-4286408,Deerfield Beach,"720 Wildwood Lane East, Deerfield Beach, Florida",-80.12906,26.32282,7520220.81,Motor Vehicles,39-4613186,Client,1052,720
Lynch and Sons,78-4161804,Pompano Beach,"1452 Southwest 7th Avenue, Pompano Beach, Florida",-80.13137,26.20875,6554087.67,Computer Software: Prepackaged Software,20-0914675,Client,6657,1452
Schulist-Macejkovic,57-2208501,Edgewater,"1284 West Pine Bluff Street, Edgewater, Florida",-80.90904,28.99020,9841897.15,Broadcasting,49-9932481,Client,2140,1284
"Rolfson, Bergstrom and Conroy",78-4673799,Fort Lauderdale,"500 Northwest 15th Way, Fort Lauderdale, Florida",-80.16505,26.20895,493132.57,Auto Parts:O.E.M.,11-6830510,Client,2560,500
Oberbrunner Inc,55-7994462,Pompano Beach,"1938 Northeast 10th Way, Pompano Beach, Florida",-80.10946,26.27984,4544293.31,Clothing/Shoe/Accessory Stores,36-0954209,Client,6154,1938
"Braun, Goodwin and Maggio",53-5651908,Fort Lauderdale,"837 Southeast 19th Place, Fort Lauderdale, Florida",-80.11363,26.09755,8691791.74,,16-2829035,Client,2854,837
"Nolan, Cummings and D'Amore",56-4241313,Kendall,"655 Southwest 105th Terrace, Kendall, Florida",-80.38242,25.67060,7411005.18,Major Banks,59-3484281,Client,3834,655
Gorczany Inc,07-7817353,Homestead,"1718 Northeast 24th Drive, Homestead, Florida",-80.41388,25.49376,3527978.98,Other Consumer Services,38-5313678,Client,3246,1718
Wisoky Group,25-1262663,Homestead,"1386 Southeast 20th Road, Homestead, Florida",-80.44430,25.45585,4397365.59,Savings Institutions,65-1228213,Client,3535,1386
Block-Kris,43-0843742,Miami,"120 Marler Avenue, Miami, Florida",-80.24949,25.72409,6872281.22,,71-3488894,Client,4408,120
Schaden-Hegmann,50-7806522,Miami,"197 Northeast 36th Street, Miami, Florida",-80.19084,25.81059,7491927.5,Marine Transportation,17-6617877,Client,4487,197
"Christiansen, Walter and Skiles",17-6953703,Miami Gardens,"1718 Northwest 20th Avenue, Miami Gardens, Florida",-80.23585,25.96314,4442307.65,,64-0177029,Client,5422,1718
"Stanton, Zieme and Breitenberg",74-6768169,Delray Beach,"1307 Southeast 3rd Avenue, Delray Beach, Florida",-80.06991,26.45436,7666115.01,Major Banks,33-9215042,Client,1726,1307
Kuphal Group,86-9631498,Edgewater,"1852 Dale Avenue, Edgewater, Florida",-80.92462,28.98794,1291274.99,Major Chemicals,28-6304005,Client,1951,1852
Erdman Group,44-2632008,Cutler Bay,"550 Nassau Drive, Cutler Bay, Florida",-80.34417,25.57784,6759585.65,Finance/Investors Services,23-1004785,Client,61,550
"Greenholt, Stanton and Stiedemann",06-4343319,Delray Beach,"1532 Wildwood Drive, Delray Beach, Florida",-80.11566,26.44871,3879414.88,,95-2555020,Client,1887,1532
Franecki-Boyer,40-3494179,Deerfield Beach,"90 Southwest 42nd Way, Deerfield Beach, Florida",-80.15950,26.28991,4932811.97,Homebuilding,82-7670837,Client,974,90
Rogahn-Anderson,53-8082132,Homestead,"1494 Northeast 24th Drive, Homestead, Florida",-80.41388,25.49376,5569446.66,Major Banks,71-1091950,Client,3246,1494
Reynolds-Gislason,53-3857154,Fort Lauderdale,"251 Northeast 56th Street, Fort Lauderdale, Florida",-80.11209,26.19673,4735786.89,,05-9810935,Client,2485,251
McCullough-Swaniawski,72-1232775,Delray Beach,"818 High Point Way Southeast, Delray Beach, Florida",-80.11260,26.46565,2229092.79,Major Pharmaceuticals,63-4486672,Client,1341,818
Graham-Brown,18-0792605,Homestead,"316 SE 14th Circle, Homestead, Florida",-80.45344,25.45374,253583.28,,04-7012806,Client,3402,316
Powlowski Inc,26-7971325,Fort Lauderdale,"1585 Northwest 13th Avenue, Fort Lauderdale, Florida",-80.15885,26.13648,2211270.6,Publishing,68-0486677,Client,2543,1585
Welch Inc,14-0633651,Deerfield Beach,"1012 Freedom Court, Deerfield Beach, Florida",-80.15595,26.30184,78403.33,,73-6467333,Client,445,1012
"Larson, Bogisich and Flatley",61-7095858,Miami,"1371 Gifford Lane, Miami, Florida",-80.24468,25.73166,6937784.72,Services-Misc. Amusement & Recreation,99-7946702,Client,4351,1371
Gerlach Inc,59-2756805,Miami,"926 Southwest 64th Avenue, Miami, Florida",-80.30003,25.76687,9745311.41,Business Services,11-3203813,Client,5082,926
Fahey Inc,88-7855023,Pinecrest,"1004 Southwest 115th Street, Pinecrest, Florida",-80.30501,25.66462,7420044.23,,70-9429898,Client,5890,1004
Thiel Inc,89-1138434,Edgewater,"814 Sea Hawk Court, Edgewater, Florida",-80.89711,28.96520,483848.14,,32-2816838,Client,2103,814
Gutkowski-Cronin,05-6337270,Fort Lauderdale,"973 Southwest 4th Court, Fort Lauderdale, Florida",-80.18050,26.11648,820196.5,Business Services,81-7256206,Client,3039,973
"Zieme, Wiza and Huel",11-5465046,Homestead,"976 SE 24th Road, Homestead, Florida",-80.43997,25.45419,1996402.59,Automotive Aftermarket,96-4347870,Client,3419,976
Halvorson LLC,99-4178681,Pompano Beach,"152 Southeast 9th Street, Pompano Beach, Florida",-80.12041,26.21860,4901682.95,Hotels/Resorts,67-2570884,Client,6591,152
"Leannon, Johnston and Raynor",17-8938008,Miami,"1679 Southwest 23rd Court, Miami, Florida",-80.23325,25.76077,1031446.67,Investment Bankers/Brokers/Service,93-9153808,Client,4968,1679
Beahan-Gutmann,97-8876775,Miami,"1128 Northwest 42nd Street, Miami, Florida",-80.21369,25.81435,328770.49,Biotechnology: Biological Products (No Diagnostic Substances),38-6556337,Client,4713,1128
Kiehn Inc,38-8652078,Fort Lauderdale,"1897 Northeast 5th Street, Fort Lauderdale, Florida",-80.12938,26.12815,5243383.58,Consumer Electronics/Appliances,08-7588576,Client,2495,1897
Berge-Bauch,97-1061960,Palmetto Bay,"1570 Southwest 157th Street, Palmetto Bay, Florida",-80.34147,25.62444,7461916.53,Other Consumer Services,69-4903902,Client,5663,1570
Ritchie Group,77-4144901,Edgewater,"31 Alamanda Drive, Edgewater, Florida",-80.89000,28.95292,8098358.89,Oil/Gas Transmission,89-3085806,Client,1921,31
Ritchie Group,77-4144901,Edgewater,"31 Alamanda Drive, Edgewater, Florida",-80.89000,28.95292,8098358.89,Oil/Gas Transmission,71-2031902,Client,1921,31
Ritchie Group,77-4144901,Edgewater,"31 Alamanda Drive, Edgewater, Florida",-80.89000,28.95292,8098358.89,Oil/Gas Transmission,11-4050706,Client,1921,31
"Murray, Sipes and Schneider",94-6548445,Deerfield Beach,"1687 Woodlands Trail, Deerfield Beach, Florida",-80.13112,26.31978,851809.12,Real Estate Investment Trusts,28-1196158,Client,1064,1687
"Rau, Osinski and Herman",68-9181968,Miami,"288 Franklin Avenue, Miami, Florida",-80.24927,25.72491,5272766.25,,31-5530201,Client,4345,288
Eichmann-Robel,39-4857478,Fort Lauderdale,"263 Southwest 26th Street, Fort Lauderdale, Florida",-80.19052,26.08917,5969886.5,Electric Utilities: Central,57-4689058,Client,2984,263
"Hamill, Boehm and Hamill",54-8973618,Delray Beach,"1141 Fulmar Drive, Delray Beach, Florida",-80.08674,26.42907,2534338.91,Multi-Sector Companies,94-6951764,Client,1289,1141
"Block, Crona and Stroman",38-5311612,Deerfield Beach,"1942 Southeast 8th Terrace, Deerfield Beach, Florida",-80.09222,26.29643,6598614.52,Major Pharmaceuticals,72-2665184,Client,872,1942
Wehner-McLaughlin,85-4712144,Fort Lauderdale,"1870 Harbor Drive, Fort Lauderdale, Florida",-80.10823,26.10986,7469392.73,Finance: Consumer Services,25-5226428,Client,2253,1870
"Fritsch, Rippin and Bayer",04-3100331,Deerfield Beach,"866 Northwest 3rd Way, Deerfield Beach, Florida",-80.10984,26.32551,9907567.39,Biotechnology: Biological Products (No Diagnostic Substances),17-0107307,Client,682,866
"Satterfield, Schuster and Block",22-5288015,Deerfield Beach,"1336 Northwest 3rd Place, Deerfield Beach, Florida",-80.15662,26.32184,164810.14,Hotels/Resorts,22-9476315,Client,676,1336
"Franecki, Mann and Kshlerin",66-6283576,Deerfield Beach,"1354 Northeast 8th Terrace, Deerfield Beach, Florida",-80.09294,26.32249,7196646.87,Major Banks,73-2075446,Client,618,1354
"Harris, Lowe and Stoltenberg",19-8961279,Fort Lauderdale,"1421 Southwest 22nd Terrace, Fort Lauderdale, Florida",-80.17106,26.08930,3733104.87,Life Insurance,16-2431258,Client,2967,1421
Bashirian and Sons,36-7031386,Cutler Bay,"1640 Southwest 209th Lane, Cutler Bay, Florida",-80.36005,25.57203,8812898,Plastic Products,98-3793686,Client,182,1640
Gulgowski-Stoltenberg,23-9642494,Fort Lauderdale,"320 Northwest 16th Terrace, Fort Lauderdale, Florida",-80.16462,26.13466,8422659.27,Electronic Components,22-3246281,Client,2566,320
Grady and Sons,78-9036433,Pinecrest,"1782 Southwest 122nd Street, Pinecrest, Florida",-80.31465,25.65771,5521238.85,Telecommunications Equipment,56-1504540,Client,5906,1782
"McGlynn, McGlynn and Bauch",56-2779372,Miami,"1283 Northwest 13th Terrace, Miami, Florida",-80.24919,25.78572,2065980.65,Biotechnology: Biological Products (No Diagnostic Substances),25-5415864,Client,4614,1283
Krajcik-Quigley,86-9755103,Miami Gardens,"272 Northwest 202nd Street, Miami Gardens, Florida",-80.25776,25.95730,6256973.4,Major Banks,70-2175131,Client,5397,272
Feil-Considine,71-1245803,Pompano Beach,"1299 Southwest 8th Drive, Pompano Beach, Florida",-80.13532,26.20849,6765417.79,Telecommunications Equipment,01-6434841,Client,6663,1299
"Crist, Dach and Rowe",38-5355151,Delray Beach,"782 Sweet Bay Drive, Delray Beach, Florida",-80.10993,26.42973,7822157.72,Auto Manufacturing,38-7178120,Client,1830,782
Simonis Group,36-0421564,Cutler Bay,"313 Southwest 88th Avenue, Cutler Bay, Florida",-80.33385,25.57743,8162149.11,Savings Institutions,02-9271828,Client,283,313
Stehr-Carter,50-1898368,Pompano Beach,"1449 Southeast 1st Court, Pompano Beach, Florida",-80.11555,26.23083,6600022.88,,33-5613774,Client,6548,1449
Miller Inc,37-0053235,Deerfield Beach,"407 Southeast 3rd Avenue, Deerfield Beach, Florida",-80.09888,26.29941,5885720.61,,35-0321433,Client,852,407
Cormier and Sons,00-4730291,Miami,"379 Loquat Avenue, Miami, Florida",-80.25795,25.72333,758359.67,Water Supply,81-2144530,Client,4398,379
Krajcik-O'Reilly,51-7664767,Fort Lauderdale,"61 Northwest 26th Avenue, Fort Lauderdale, Florida",-80.17772,26.15229,6636554.74,Real Estate Investment Trusts,37-6176461,Client,2627,61
Boyer-Jakubowski,85-6365330,Palmetto Bay,"1276 Southwest 176th Terrace, Palmetto Bay, Florida",-80.33237,25.60618,710227.36,Auto Parts:O.E.M.,82-6408426,Client,5716,1276
Bartoletti Inc,09-9848696,Miami Gardens,"1349 Northwest 32nd Court, Miami Gardens, Florida",-80.25295,25.91343,4420856.13,Telecommunications Equipment,88-9795163,Client,5482,1349
"Gaylord, Glover and Hackett",30-1012928,Miami Gardens,"1555 Northwest 27th Place, Miami Gardens, Florida",-80.24792,25.95908,3176121.97,,15-3709378,Client,5463,1555
Hansen-Schroeder,55-7037603,Pompano Beach,"1379 Northeast 24th Avenue, Pompano Beach, Florida",-80.09916,26.24270,2799110.81,,72-7634742,Client,6227,1379
Welch Group,23-2905788,Fort Lauderdale,"734 Northeast 23rd Court, Fort Lauderdale, Florida",-80.10358,26.15821,6459952.56,Motor Vehicles,29-2748962,Client,2388,734
Nikolaus Inc,34-4235134,Kendall,"157 Southwest 113th Avenue, Kendall, Florida",-80.37613,25.70545,1913501.42,Trucking Freight/Courier Services,54-3658191,Client,3897,157
"Feeney, Hoppe and Gerlach",58-3019747,Cutler Bay,"1617 Holiday Road, Cutler Bay, Florida",-80.34368,25.58662,9452169.26,,19-7519199,Client,42,1617
Jaskolski LLC,71-4532389,Fort Lauderdale,"667 Northwest 22nd Road, Fort Lauderdale, Florida",-80.17219,26.13094,2972280.74,Multi-Sector Companies,42-8701191,Client,2605,667
"Hamill, Schumm and Marquardt",97-9721989,Pompano Beach,"1582 North Cypress Bend Drive, Pompano Beach, Florida",-80.15487,26.21854,2107327.36,Biotechnology: Electromedical & Electrotherapeutic Apparatus,22-2106291,Client,6137,1582
"Gleichner, Prosacco and Champlin",37-2228426,Miami,"471 Northwest 31st Terrace, Miami, Florida",-80.20682,25.80593,1795688.86,,15-0534599,Client,4680,471
"Johns, Heathcote and Considine",57-4130497,Deerfield Beach,"1619 Northwest 5th Street, Deerfield Beach, Florida",-80.10392,26.32460,6966633.91,Hotels/Resorts,55-0961682,Client,752,1619
Farrell-Lebsack,15-6533881,Fort Lauderdale,"530 Northwest 45th Street, Fort Lauderdale, Florida",-80.16044,26.18334,3214108.21,Real Estate Investment Trusts,48-6498129,Client,2679,530
Kessler LLC,96-2053943,Fort Lauderdale,"1387 River Reach Drive, Fort Lauderdale, Florida",-80.15548,26.10933,8198043.93,Major Banks,74-6671402,Client,2785,1387
Heidenreich-Murray,71-1275403,Kendall,"1869 Southwest 73rd Street, Kendall, Florida",-80.37862,25.69984,7282185.61,Industrial Machinery/Components,63-6031304,Client,4061,1869
Jast-Weber,71-8394481,Delray Beach,"30 Southwest 8th Avenue, Delray Beach, Florida",-80.08114,26.44428,9221911.64,EDP Services,68-8209197,Client,1803,30
"Hamill, Berge and Dare",18-5474362,Miami,"755 Northeast 65th Street, Miami, Florida",-80.19138,25.83573,6237376.96,Property-Casualty Insurers,43-5748813,Client,4532,755
Botsford-Hand,61-9820312,Miami,"1679 Pinta Road, Miami, Florida",-80.21654,25.74610,9192549.47,"Computer Software: Programming, Data Processing",76-4969871,Client,4854,1679
Ankunding Group,30-5839469,Delray Beach,"422 Northeast 6th Street, Delray Beach, Florida",-80.06826,26.47164,9436675.62,Major Banks,34-1384698,Client,1487,422
"D'Amore, Jacobi and Fritsch",75-4880371,Deerfield Beach,"975 Northwest 38th Street, Deerfield Beach, Florida",-80.12912,26.27660,3933312.09,Medical Specialities,62-7237054,Client,666,975
"Gaylord, Parisian and Hauck",62-4002187,Kendall,"188 Southwest 101 Terrace, Kendall, Florida",-80.35082,25.67552,7600079.33,Real Estate Investment Trusts,72-7238269,Client,3788,188
"Ondricka, Kessler and Weber",08-4513614,Miami,"636 Northwest 20th Avenue, Miami, Florida",-80.22902,25.81037,7833816.16,Commercial Banks,76-2786296,Client,4640,636
Schneider Inc,37-8805122,Kendall,"1865 Dadeland Boulevard, Kendall, Florida",-80.31340,25.68641,2788633.29,Major Banks,45-1753147,Client,3755,1865
Collier and Sons,88-4395222,Miami,"539 Northwest 47th Terrace, Miami, Florida",-80.20670,25.81904,457363.9,Power Generation,84-8648067,Client,4723,539
Schimmel Group,99-2128743,Miami Gardens,"358 Northwest 200th Terrace, Miami Gardens, Florida",-80.25990,25.95583,8826187.3,,33-9157753,Client,5392,358
"Heaney, Bernhard and Prosacco",89-7894409,Delray Beach,"1138 Strickland Road, Delray Beach, Florida",-80.08174,26.44442,570184.57,Electric Utilities: Central,74-2912595,Client,1821,1138
Beer and Sons,14-6584811,Fort Lauderdale,"1563 Del Mar Place, Fort Lauderdale, Florida",-80.11302,26.12135,4758280.92,"Computer Software: Programming, Data Processing",72-8479197,Client,2226,1563
Fay Group,94-1497747,Miami,"861 Micanopy Avenue, Miami, Florida",-80.22138,25.74123,7820521.9,Real Estate Investment Trusts,22-9120989,Client,4419,861
Lehner LLC,68-7399359,Cutler Bay,"1506 Southwest 104th Court, Cutler Bay, Florida",-80.36166,25.57770,2034816.51,Medical Specialities,71-5099190,Client,99,1506
Bradtke-Crist,98-8052983,Deerfield Beach,"582 Northeast 2nd Way, Deerfield Beach, Florida",-80.12012,26.29297,3886536.17,,53-4739936,Client,545,582
"Romaguera, Langosh and Stokes",27-5541185,Fort Lauderdale,"1804 Southwest 12th Court, Fort Lauderdale, Florida",-80.15323,26.10643,1119751.78,Business Services,31-1859225,Client,2904,1804
"Leffler, Orn and Stroman",33-2927156,Fort Lauderdale,"1050 West Broward Boulevard, Fort Lauderdale, Florida",-80.16292,26.12184,7333214.52,Real Estate Investment Trusts,45-6940352,Client,3091,1050
Fritsch-O'Connell,43-0391686,Homestead,"1052 Northeast 13th Circle Drive, Homestead, Florida",-80.42660,25.48312,5883192.68,Real Estate Investment Trusts,04-0420560,Client,3201,1052
Jakubowski LLC,36-1227572,Pompano Beach,"383 22nd Street Northwest, Pompano Beach, Florida",-80.14215,26.25789,5278473.28,Marine Transportation,65-4850134,Client,6053,383
"Hoppe, Dicki and Barrows",82-6005079,Fort Lauderdale,"1847 West Oak Park Access Road, Fort Lauderdale, Florida",-80.10489,26.16726,3861127.4,Major Pharmaceuticals,66-7981795,Client,3098,1847
"Glover, Fadel and Hilll",01-0541494,Fort Lauderdale,"305 Northwest 30th Terrace, Fort Lauderdale, Florida",-80.18731,26.20905,1340688.51,Steel/Iron Ore,58-9292727,Client,2654,305
Volkman and Sons,49-8520051,Fort Lauderdale,"1473 Northeast 13th Court, Fort Lauderdale, Florida",-80.11394,26.14423,9661754.12,,87-8162121,Client,2322,1473
"Hayes, Leffler and Schmitt",59-9637942,Homestead,"776 Northeast 2nd Court, Homestead, Florida",-80.42300,25.47222,8877857.9,,76-1347503,Client,3258,776
DuBuque-Heaney,46-5708095,Fort Lauderdale,"1628 Northwest 48th Street, Fort Lauderdale, Florida",-80.15785,26.18567,1272843.17,Industrial Machinery/Components,03-6410404,Client,2685,1628
Beier LLC,23-8226221,Delray Beach,"59 West Mallory Circle, Delray Beach, Florida",-80.06765,26.45529,2080368.73,Motor Vehicles,45-8972342,Client,1874,59
Quitzon-Cole,05-9278462,Delray Beach,"1060 Eastview Avenue, Delray Beach, Florida",-80.06399,26.48096,2337051.34,Business Services,51-5264494,Client,1258,1060
Dooley and Sons,72-6644819,Homestead,"201 Southeast 10th Street, Homestead, Florida",-80.44453,25.46040,6373849.11,Major Banks,06-5360784,Client,3473,201
Feest Inc,91-2130051,Kendall,"64 Southwest 81st Court, Kendall, Florida",-80.32468,25.68916,9237527.06,Other Consumer Services,20-5643480,Client,4101,64
Bins-Hartmann,79-9526309,Edgewater,"436 Mariners Gate Court, Edgewater, Florida",-80.89430,28.96665,3633528.08,Home Furnishings,33-5824377,Client,2030,436
"Carroll, Marks and Kutch",74-9877331,Delray Beach,"1113 High Point Place South, Delray Beach, Florida",-80.11168,26.46563,7888440.15,,60-7066337,Client,1336,1113
"McKenzie, Kilback and Maggio",43-1316148,Pompano Beach,"348 Misty Oaks Drive, Pompano Beach, Florida",-80.18318,26.22132,9893405.03,Biotechnology: Electromedical & Electrotherapeutic Apparatus,82-7304721,Client,6130,348
Stracke and Sons,70-2566864,Delray Beach,"1483 Curlew Road, Delray Beach, Florida",-80.07959,26.43009,8147998.8,,37-2400304,Client,1210,1483
Jakubowski-Towne,92-5872818,Deerfield Beach,"1886 Northeast 8th Terrace, Deerfield Beach, Florida",-80.09294,26.32249,1229027.97,Life Insurance,81-0406556,Client,618,1886
"Roberts, Schinner and Parisian",31-0575471,Deerfield Beach,"716 Discovery Drive, Deerfield Beach, Florida",-80.13328,26.29185,8394987.61,Paper,93-7175414,Client,406,716
Breitenberg Group,04-0110058,Edgewater,"1749 Date Palm Drive, Edgewater, Florida",-80.89428,28.95917,4132044.03,Major Banks,53-2185278,Client,1952,1749
Zboncak-Schulist,26-3797238,Fort Lauderdale,"885 Northwest 12th Terrace, Fort Lauderdale, Florida",-80.15812,26.13466,201555.17,Business Services,67-5675561,Client,2540,885
"Christiansen, Ondricka and Towne",32-4373044,Deerfield Beach,"1431 Southeast 3rd Terrace, Deerfield Beach, Florida",-80.09830,26.31316,3490713.79,Metal Fabrications,26-2882425,Client,857,1431
"Towne, Wintheiser and Klocko",09-6961906,Homestead,"1465 SE 5th Street, Homestead, Florida",-80.42761,25.46573,3426096.16,EDP Services,16-8630005,Client,3452,1465
Bernhard LLC,23-3167443,Cutler Bay,"706 Southwest 97th Court, Cutler Bay, Florida",-80.34669,25.56523,5869537.56,Biotechnology: Biological Products (No Diagnostic Substances),35-6665057,Client,331,706
"Fadel, Morar and Waelchi",55-0731694,Miami Gardens,"421 Northwest 183rd Drive, Miami Gardens, Florida",-80.22990,25.94228,8527468.13,Shoe Manufacturing,31-8507289,Client,5314,421
Dicki-Wisozk,83-2110049,Pinecrest,"683 Southwest 136th Street, Pinecrest, Florida",-80.33357,25.64394,5062788.87,Hospital/Nursing Management,19-4821263,Client,5943,683
Roob-Friesen,38-2663032,Fort Lauderdale,"1255 Coontie Court, Fort Lauderdale, Florida",-80.15329,26.11708,6403721.89,Computer Software: Prepackaged Software,12-3392114,Client,2212,1255
Quigley and Sons,74-8765409,Miami,"311 Northeast 81st Street, Miami, Florida",-80.18524,25.84940,7548079.44,Medical/Nursing Services,96-2514895,Client,4562,311
Schumm and Sons,29-7410236,Delray Beach,"1806 Calabria Way, Delray Beach, Florida",-80.10444,26.43415,2822076.2,Metal Fabrications,72-6433566,Client,1149,1806
Hammes-Mills,75-2794345,Fort Lauderdale,"1481 Orange Isle, Fort Lauderdale, Florida",-80.15632,26.10063,4883795.03,Major Chemicals,03-6860964,Client,2766,1481
Howe LLC,16-4494645,Deerfield Beach,"540 Southwest 3rd Court, Deerfield Beach, Florida",-80.10579,26.31325,9477546.89,Other Consumer Services,52-0978911,Client,967,540
"Paucek, Kautzer and Prohaska",48-4148750,Miami,"294 Coacoochee Street, Miami, Florida",-80.22346,25.74114,3057004.55,Water Supply,35-6316017,Client,4305,294
"Bogisich, Frami and Windler",59-5014206,Kendall,"205 Southwest 74th Place, Kendall, Florida",-80.38140,25.69862,1448927,Major Banks,53-4707559,Client,4066,205
Ratke-Wilderman,31-3963045,Homestead,"831 SE 23rd Street, Homestead, Florida",-80.45222,25.45213,9692696.27,Restaurants,38-3065109,Client,3417,831
"Lebsack, Parisian and Block",28-5329219,Deerfield Beach,"370 Southeast 2nd Terrace, Deerfield Beach, Florida",-80.09970,26.30204,8319652.63,Real Estate Investment Trusts,65-1859075,Client,851,370
Durgan and Sons,43-5094485,Miami,"569 Dunham Boulevard, Miami, Florida",-80.17455,25.84689,16515.5,,12-2759663,Client,4325,569
"Rosenbaum, Hermiston and Tromp",17-7682456,Deerfield Beach,"524 Northwest 1st Way, Deerfield Beach, Florida",-80.12576,26.29412,7042357.86,Electrical Products,53-1598179,Client,649,524
"Roob, Nader and Mertz",41-8170916,Homestead,"1664 SE 16th Road, Homestead, Florida",-80.45410,25.44658,7752674.6,Major Banks,52-9062567,Client,3405,1664
Emmerich Inc,88-5098398,Cutler Bay,"953 Southwest 88th Avenue, Cutler Bay, Florida",-80.33427,25.56462,27831.47,,79-1016264,Client,282,953
Veum Inc,69-4057476,Fort Lauderdale,"1435 Northeast 33rd Court, Fort Lauderdale, Florida",-80.10690,26.16952,6287489.75,Military/Government/Technical,91-6265367,Client,2434,1435
Schneider-Maggio,67-4361209,Miami,"1047 Southwest 31st Avenue, Miami, Florida",-80.24487,25.76734,6583287.21,Life Insurance,98-2945237,Client,5015,1047
"Mertz, Fisher and Mante",25-4810123,Delray Beach,"1879 South Barwick Ranch Circle, Delray Beach, Florida",-80.11550,26.47887,6539039.33,Military/Government/Technical,79-5273720,Client,1703,1879
"Bosco, Cronin and Wehner",54-7655100,Homestead,"466 Northeast 34th Terrace, Homestead, Florida",-80.42437,25.47732,3134855.78,,76-4409029,Client,3276,466
Conroy-Hyatt,52-7904261,Delray Beach,"1642 Tamarind Road, Delray Beach, Florida",-80.06195,26.45132,8631445.02,Auto Parts:O.E.M.,88-9862933,Client,1833,1642
Fritsch-Flatley,81-3616577,Delray Beach,"1855 Southwest 11th Street, Delray Beach, Florida",-80.08114,26.44521,7513624.04,Industrial Machinery/Components,69-4398292,Client,1749,1855
"Baumbach, Vandervort and Towne",83-7600154,Deerfield Beach,"1101 Discovery Way, Deerfield Beach, Florida",-80.13169,26.29210,2058758.01,Major Pharmaceuticals,92-7963921,Client,407,1101
"Walter, Moore and Hahn",06-1484074,Miami,"431 Grove Tower, Miami, Florida",-80.23896,25.72814,9448217.83,,83-4942301,Client,4356,431
Streich and Sons,65-5628943,Palmetto Bay,"1758 Southwest 142nd Terrace, Palmetto Bay, Florida",-80.32471,25.63833,9365008.22,Computer Manufacturing,43-0730384,Client,5625,1758
Gislason-Funk,04-3579910,Edgewater,"587 Admiralty Court, Edgewater, Florida",-80.87819,28.93073,6173851.27,Major Pharmaceuticals,94-0750734,Client,1920,587
Nitzsche-Simonis,12-0407574,Fort Lauderdale,"644 Southwest 1st Court, Fort Lauderdale, Florida",-80.17223,26.12038,7886157.55,Catalog/Specialty Distribution,27-4508820,Client,2949,644
Berge and Sons,09-1810971,Miami Gardens,"84 Northwest 195th Terrace, Miami Gardens, Florida",-80.20967,25.95363,9236482.31,Transportation Services,89-7125241,Client,5365,84
Kshlerin-Brakus,89-8827036,Edgewater,"648 Kingfisher Lane, Edgewater, Florida",-80.88866,28.96435,2045572.1,Movies/Entertainment,62-6236130,Client,2012,648
Thiel-Jast,75-2778403,Homestead,"1738 English Avenue, Homestead, Florida",-80.47523,25.47712,4196835.08,Industrial Specialties,84-7321431,Client,3130,1738
Labadie-Frami,88-9959928,Miami,"1284 Southwest 39th Avenue, Miami, Florida",-80.25796,25.73335,9232719.75,,28-8854034,Client,5040,1284
"Hilpert, Wolff and Gorczany",62-1280853,Delray Beach,"1869 Park of Commerce Boulevard, Delray Beach, Florida",-80.09025,26.47425,2314188.03,Major Pharmaceuticals,61-0782447,Client,1628,1869
"West, Macejkovic and Schoen",57-7857778,Deerfield Beach,"1213 Highlands Pines Mhp, Deerfield Beach, Florida",-80.11271,26.29184,604399.44,Television Services,60-8142366,Client,471,1213
Hegmann-Hagenes,34-7373621,Miami,"1937 Southwest 51st Avenue, Miami, Florida",-80.27718,25.76758,8291819.24,Wholesale Distributors,36-4309839,Client,5056,1937
Olson LLC,48-9630590,Fort Lauderdale,"1608 Isla Bahia Drive, Fort Lauderdale, Florida",-80.11320,26.10766,9278740.01,Oil & Gas Production,61-0639591,Client,2266,1608
Wunsch-Kreiger,74-7488598,Deerfield Beach,"1410 Cambridge East, Deerfield Beach, Florida",-80.13477,26.31394,436448.51,Consumer: Greeting Cards,95-8732088,Client,378,1410
"Pfannerstill, Turner and Cormier",93-1445473,Delray Beach,"55 North Citation Drive, Delray Beach, Florida",-80.12063,26.43541,9502238.5,Natural Gas Distribution,10-0204864,Client,1447,55
"Orn, Altenwerth and O'Connell",53-0152720,Homestead,"400 Southwest 328th Street, Homestead, Florida",-80.49804,25.46239,6975903.45,Motor Vehicles,73-9496899,Client,3697,400
Stiedemann Group,97-6260075,Fort Lauderdale,"953 City View Drive, Fort Lauderdale, Florida",-80.14695,26.12504,5060888.72,Power Generation,32-6466205,Client,2200,953
Dach-Boyle,61-8139501,Delray Beach,"167 Sunshine Drive, Delray Beach, Florida",-80.08006,26.47132,1504747.37,Industrial Machinery/Components,14-2336976,Client,1828,167
Little LLC,27-9076799,Fort Lauderdale,"192 Starlight Landing Drive, Fort Lauderdale, Florida",-80.16776,26.09975,4160729.25,Pollution Control Equipment,03-3052278,Client,3064,192
"Cremin, Gusikowski and Metz",18-4430143,Pompano Beach,"1120 Northeast 19th Street, Pompano Beach, Florida",-80.09496,26.25537,7172357.97,Air Freight/Delivery Services,65-7014749,Client,6203,1120
Rosenbaum-Stoltenberg,88-1468652,Deerfield Beach,"1246 Northeast 4th Terrace, Deerfield Beach, Florida",-80.11778,26.27954,5191227.44,Major Banks,59-4556079,Client,587,1246
Moore-Hane,62-4145986,Kendall,"1339 Southwest 96th Court, Kendall, Florida",-80.35071,25.67864,1681073.88,,59-0414529,Client,4210,1339
"Murphy, Larson and Sipes",94-4262844,Pompano Beach,"572 Blanch Ely Avenue, Pompano Beach, Florida",-80.13080,26.24863,5876708.25,Industrial Machinery/Components,38-8882289,Client,6068,572
McDermott-Davis,23-8325484,Palmetto Bay,"1263 Southwest 159th Street, Palmetto Bay, Florida",-80.33456,25.62253,7966921.04,,77-1204753,Client,5667,1263
Schuppe and Sons,81-2026008,Deerfield Beach,"1409 Southwest 15th Place, Deerfield Beach, Florida",-80.13220,26.29671,2021872.86,Major Pharmaceuticals,80-1036160,Client,910,1409
Roob Group,49-2643086,Deerfield Beach,"1504 East Bougainvillea Drive, Deerfield Beach, Florida",-80.12115,26.32264,1115312.03,Diversified Commercial Services,39-6021563,Client,414,1504
Corkery-Brekke,07-3707314,Deerfield Beach,"756 South Military Trail, Deerfield Beach, Florida",-80.12719,26.30799,1610213.68,,65-2926887,Client,808,756
Stiedemann-Mueller,13-4349446,Pinecrest,"703 Southwest 91st Street, Pinecrest, Florida",-80.28783,25.68644,5940989.55,Industrial Machinery/Components,69-1708597,Client,6038,703
Lynch Group,61-1965351,Homestead,"425 SE 37th Place, Homestead, Florida",-80.42021,25.46604,8696275.54,Railroads,39-3248763,Client,3439,425
"Morar, Sanford and Lakin",09-8783061,Homestead,"25 Northwest 4th Avenue, Homestead, Florida",-80.48358,25.48517,5856948.77,Major Pharmaceuticals,43-7723322,Client,3367,25
"Ledner, Gusikowski and Reichert",55-3397816,Deerfield Beach,"1841 Cypress Lane, Deerfield Beach, Florida",-80.13378,26.29017,3150395.9,Major Banks,48-3064970,Client,392,1841
DuBuque-Fritsch,46-5295487,Homestead,"652 San Remo Circle, Homestead, Florida",-80.45894,25.45418,4148375.38,Real Estate Investment Trusts,85-3606176,Client,3399,652
Huels-Hahn,51-9961439,Miami,"648 Southwest 30th Avenue, Miami, Florida",-80.24196,25.74079,3341067.08,EDP Services,90-4022003,Client,5011,648
"Stiedemann, Corkery and Pfeffer",80-3711132,Fort Lauderdale,"1272 Magellan Drive, Fort Lauderdale, Florida",-80.17413,26.09297,6843142.67,Other Specialty Stores,49-7313013,Client,2283,1272
Ortiz-Kiehn,17-6543490,Delray Beach,"1481 Preserve Drive, Delray Beach, Florida",-80.11754,26.43228,2986924.09,Package Goods/Cosmetics,48-9409924,Client,1646,1481
Brekke-Jacobi,63-4871732,Pompano Beach,"973 Noarthwest 13th Avenue, Pompano Beach, Florida",-80.14110,26.23897,5320822.03,,77-4228902,Client,6134,973
Gleichner and Sons,02-7941731,Pompano Beach,"1484 Southwest 1st Terrace, Pompano Beach, Florida",-80.12493,26.21663,657158.96,Catalog/Specialty Distribution,23-1729124,Client,6622,1484
"Boehm, Johns and Blick",24-6974439,Deerfield Beach,"1370 Northeast 6th Court, Deerfield Beach, Florida",-80.10085,26.32615,6432396.46,Real Estate Investment Trusts,16-8602931,Client,608,1370
Kemmer Inc,56-6669626,Miami,"1680 Southwest 35th Court, Miami, Florida",-80.25235,25.75505,6696162.17,Packaged Foods,75-9450770,Client,5032,1680
Schmeler Group,76-7262682,Miami,"1875 Northwest 20th Court, Miami, Florida",-80.22889,25.78191,636389.49,Business Services,41-0399143,Client,4641,1875
Upton-Bauch,78-5596220,Fort Lauderdale,"1184 Powerline Road, Fort Lauderdale, Florida",-80.15590,26.20905,7888078.61,Medical/Dental Instruments,74-4868832,Client,2782,1184
Blanda Inc,24-9258974,Homestead,"1357 NE 4th Street, Homestead, Florida",-80.44386,25.47390,5192550.03,,90-7898277,Client,3174,1357
"Schuster, Watsica and Berge",80-7894876,Kendall,"922 Southwest 85th Lane, Kendall, Florida",-80.37700,25.68885,9381997.06,Biotechnology: Biological Products (No Diagnostic Substances),01-2136431,Client,4128,922
Boehm-Marks,11-4713581,Fort Lauderdale,"447 Sugar Loaf Lane, Fort Lauderdale, Florida",-80.19763,26.08957,1272157.54,,66-4717909,Client,3066,447
O'Connell and Sons,94-5455423,Miami,"1159 Northwest South River Drive, Miami, Florida",-80.24135,25.79338,2615927.69,,84-5185097,Client,4824,1159
"Langosh, Feeney and Wolf",85-7811084,Deerfield Beach,"390 Northwest 44th Terrace, Deerfield Beach, Florida",-80.16465,26.31897,5044632.23,Major Pharmaceuticals,47-9747959,Client,704,390
"Kling, Baumbach and Schmidt",73-3312626,Pompano Beach,"1159 Southwest 8th Court, Pompano Beach, Florida",-80.12655,26.21889,9777193.75,Advertising,96-4237579,Client,6662,1159
Monahan LLC,43-0924343,Palmetto Bay,"1754 Southwest 139th Street, Palmetto Bay, Florida",-80.31595,25.64158,5504102,Major Pharmaceuticals,13-4710469,Client,5614,1754
"Brekke, Purdy and Kshlerin",56-0584316,Fort Lauderdale,"973 Northeast 12th Avenue, Fort Lauderdale, Florida",-80.13149,26.13274,9996505.56,Telecommunications Equipment,37-6092616,Client,2317,973
Buckridge Inc,27-1002355,Fort Lauderdale,"1954 Northwest 25th Way, Fort Lauderdale, Florida",-80.17656,26.20765,1292710.46,,08-2279490,Client,2626,1954
"Leannon, Pfannerstill and Parisian",83-9861233,Kendall,"1217 Southwest 88th Terrace, Kendall, Florida",-80.34696,25.68709,2517263.65,Real Estate Investment Trusts,49-6131451,Client,4150,1217
"Schimmel, Haag and Torphy",83-5012708,Kendall,"60 Denicke Street, Kendall, Florida",-80.31578,25.68205,3229962.36,,72-4566141,Client,3759,60
Towne-Vandervort,43-2042407,Deerfield Beach,"961 Northwest 9th Terrace, Deerfield Beach, Florida",-80.13630,26.29275,5500882.24,Miscellaneous manufacturing industries,12-5841325,Client,764,961
"Dare, Shanahan and Feeney",12-5464864,Deerfield Beach,"907 Southwest 42nd Way, Deerfield Beach, Florida",-80.15950,26.28991,5476464.72,Property-Casualty Insurers,45-0963721,Client,974,907
Schoen LLC,92-5791308,Deerfield Beach,"1224 Northwest 50th Drive, Deerfield Beach, Florida",-80.13872,26.29288,9934880.08,Other Specialty Stores,46-7135971,Client,734,1224
Predovic-Waters,53-9248519,Homestead,"171 Northwest 9th Terrace, Homestead, Florida",-80.48907,25.47159,9710164.21,Containers/Packaging,65-1521810,Client,3383,171
Hettinger and Sons,13-1474577,Deerfield Beach,"1285 Southwest 10th Terrace, Deerfield Beach, Florida",-80.11731,26.30096,3279645.12,,71-8403456,Client,882,1285
"Osinski, Dach and Zemlak",54-3539170,Homestead,"1624 Southwest 7th Court, Homestead, Florida",-80.48313,25.46301,4813149.79,,78-2782063,Client,3718,1624
Koss LLC,61-0040986,Fort Lauderdale,"1826 5th Key Drive, Fort Lauderdale, Florida",-80.11391,26.13051,3725307.43,,12-1860280,Client,2157,1826
Hahn Group,45-5896146,Fort Lauderdale,"1835 Northwest 53rd Street, Fort Lauderdale, Florida",-80.15741,26.19214,2663345.68,Biotechnology: Commercial Physical & Biological Resarch,15-5905171,Client,2695,1835
"Smith, Fritsch and Padberg",34-2333425,Deerfield Beach,"1152 People's Trust Way, Deerfield Beach, Florida",-80.12016,26.29728,6066013.23,Biotechnology: Biological Products (No Diagnostic Substances),68-5011852,Client,777,1152
Kovacek Inc,45-8194429,Pompano Beach,"1519 Northeast 10th Way, Pompano Beach, Florida",-80.10946,26.27984,770192.51,Rental/Leasing Companies,88-7189072,Client,6154,1519
Kovacek Inc,45-8194429,Pompano Beach,"1519 Northeast 10th Way, Pompano Beach, Florida",-80.10946,26.27984,770192.51,Rental/Leasing Companies,44-9089398,Client,6154,1519
Kovacek Inc,45-8194429,Pompano Beach,"1519 Northeast 10th Way, Pompano Beach, Florida",-80.10946,26.27984,770192.51,Rental/Leasing Companies,71-2031902,Client,6154,1519
Ferry Group,56-2444752,Delray Beach,"1176 Greenbriar Drive, Delray Beach, Florida",-80.10255,26.43391,7535832.45,Beverages (Production/Distribution),36-6718468,Client,1306,1176
Harris Inc,37-1766269,Homestead,"1695 Southwest 16th Terrace, Homestead, Florida",-80.49774,25.46821,1338355.04,Other Consumer Services,29-7694883,Client,3664,1695
"Smith, Heller and Halvorson",19-4805038,Miami Gardens,"1936 Northwest 182nd Terrace, Miami Gardens, Florida",-80.24160,25.94021,1328038.35,,22-8947768,Client,5312,1936
Mraz Group,78-0350234,Homestead,"1780 Northeast 2nd Road, Homestead, Florida",-80.47029,25.47404,8498378.16,Multi-Sector Companies,01-6574186,Client,3261,1780
Schoen and Sons,40-0076012,Fort Lauderdale,"1916 Southwest 29th Avenue, Fort Lauderdale, Florida",-80.18319,26.10637,5674917.3,Metal Fabrications,27-0403523,Client,2998,1916
Schmeler Group,49-5907371,Homestead,"1365 Southeast 33rd Terrace, Homestead, Florida",-80.42773,25.46876,9056743.85,Computer Software: Prepackaged Software,35-9357034,Client,3600,1365
"Osinski, Anderson and Rath",29-1167018,Miami,"947 Northeast 4th Court, Miami, Florida",-80.18747,25.83231,1432128.31,Military/Government/Technical,94-0835153,Client,4505,947
Lebsack-Gibson,04-7067469,Edgewater,"279 Central Mariners Drive, Edgewater, Florida",-80.89648,28.96709,4285880.1,Investment Managers,13-3997884,Client,1943,279
Mueller Inc,13-9656226,Deerfield Beach,"1727 Southwest 7th Street, Deerfield Beach, Florida",-80.10470,26.30896,5630979.97,Department/Specialty Retail Stores,42-1604167,Client,997,1727
Sipes-Ruecker,57-5024592,Kendall,"872 Southwest 117th Terrace, Kendall, Florida",-80.32849,25.66109,9326718.66,,13-8575638,Client,3946,872
"Wuckert, Gutkowski and Sporer",54-9961142,Delray Beach,"749 Salerno Way, Delray Beach, Florida",-80.10466,26.43498,8720756.7,Major Pharmaceuticals,95-4754054,Client,1672,749
Dare-Zemlak,98-8519993,Miami,"305 Northeast 72nd Terrace, Miami, Florida",-80.18334,25.84174,3143543.37,,94-5636701,Client,4545,305
Beatty-Balistreri,34-2141725,Fort Lauderdale,"407 North Port Royale Drive, Fort Lauderdale, Florida",-80.10336,26.21153,4820042.77,Electric Utilities: Central,19-4585118,Client,2308,407
Little LLC,54-4859908,Fort Lauderdale,"1922 South Rio Vista Boulevard, Fort Lauderdale, Florida",-80.13457,26.10991,8101739.15,Computer Manufacturing,94-6449930,Client,2822,1922
"Langworth, Friesen and West",03-7269073,Miami,"76 Northwest 33rd Court, Miami, Florida",-80.25033,25.78729,6476069.97,EDP Services,96-7053170,Client,4687,76
Borer Inc,71-1346126,Homestead,"1042 Southwest 304th Street, Homestead, Florida",-80.50180,25.48431,5945549.68,Electronic Components,52-6920144,Client,3683,1042
Osinski-Dach,87-3692672,Pompano Beach,"1898 Bay Drive, Pompano Beach, Florida",-80.08450,26.25656,3535860.36,Oil & Gas Production,77-1143248,Client,6063,1898
"Kunde, McDermott and Metz",92-2535351,Cutler Bay,"1235 Southwest 90th Place, Cutler Bay, Florida",-80.33835,25.55553,7446616.13,Real Estate Investment Trusts,75-2121504,Client,299,1235
Wolf and Sons,52-0515145,Delray Beach,"627 Gallinule Circle, Delray Beach, Florida",-80.08698,26.42756,4506109.82,Steel/Iron Ore,21-7619319,Client,1291,627
Hammes-Simonis,17-5092428,Pompano Beach,"1484 Northeast 16th Avenue, Pompano Beach, Florida",-80.10093,26.28464,6791791.83,,35-8288706,Client,6179,1484
Douglas-Jones,29-5411993,Delray Beach,"1176 Southeast 1st Avenue, Delray Beach, Florida",-80.07194,26.45434,7404664.86,Computer Software: Prepackaged Software,39-9672586,Client,1722,1176
"Kub, Schinner and Ebert",07-1228609,Cutler Bay,"520 Southwest 99th Avenue, Cutler Bay, Florida",-80.35100,25.58922,9154357.73,Major Pharmaceuticals,39-4026772,Client,339,520
Lehner-Emmerich,97-2903841,Delray Beach,"1345 Jasmine Terrace, Delray Beach, Florida",-80.06836,26.42551,5120539.59,,73-8422709,Client,1360,1345
Breitenberg-Klocko,25-6650763,Miami,"915 Arthur Lamb Jr Road, Miami, Florida",-80.15772,25.73971,9363165.39,,06-6968211,Client,4252,915
"Hermiston, Heathcote and Watsica",86-5908244,Pinecrest,"1539 Southwest 73rd Avenue, Pinecrest, Florida",-80.31260,25.68334,3824884.4,Home Furnishings,26-7881600,Client,5999,1539
Labadie-Jenkins,04-2311467,Delray Beach,"618 Arelia Way, Delray Beach, Florida",-80.11217,26.43972,6216348.35,Telecommunications Equipment,40-9109369,Client,1084,618
Schmitt Group,24-7898090,Miami,"125 Northeast 84th Street, Miami, Florida",-80.17430,25.85323,53265.3,,13-7052075,Client,4570,125
Leffler-Tillman,71-2992829,Fort Lauderdale,"1961 Northeast 48th Street, Fort Lauderdale, Florida",-80.11686,26.18659,6100567.05,EDP Services,08-8023386,Client,2465,1961
Yundt Group,43-4613534,Homestead,"1435 Northwest 2nd Street, Homestead, Florida",-80.48907,25.47159,7524942.68,Business Services,27-8359819,Client,3364,1435
"Kshlerin, MacGyver and Cronin",63-1522104,Palmetto Bay,"740 Southwest 173rd Street, Palmetto Bay, Florida",-80.31389,25.61067,5795505.91,Oil & Gas Production,76-5135466,Client,5708,740
"Kub, Zemlak and Johnson",42-8457668,Fort Lauderdale,"316 Southwest 36th Avenue, Fort Lauderdale, Florida",-80.19456,26.09660,205026.85,Real Estate Investment Trusts,70-2943623,Client,3026,316
Nolan-Rice,70-8876472,Delray Beach,"767 Avenue H, Delray Beach, Florida",-80.07169,26.42871,2059815.77,,70-9096101,Client,1098,767
Medhurst-Christiansen,21-7746785,Pinecrest,"1693 Southwest 70th Court, Pinecrest, Florida",-80.30855,25.65734,2142403.65,Biotechnology: Biological Products (No Diagnostic Substances),91-0380434,Client,5990,1693
Mitchell Group,65-0398193,Palmetto Bay,"1833 Southwest 174th Terrace, Palmetto Bay, Florida",-80.32572,25.60837,4527999.66,Movies/Entertainment,96-6230904,Client,5712,1833
"Champlin, Weissnat and Dickens",85-6345021,Pompano Beach,"1902 Northwest 14th Street, Pompano Beach, Florida",-80.12565,26.24502,4443189.95,Biotechnology: In Vitro & In Vivo Diagnostic Substances,91-4104511,Client,6343,1902
Swaniawski and Sons,10-1043311,Palmetto Bay,"905 Southwest 155th Terrace, Palmetto Bay, Florida",-80.33142,25.62623,2610730.1,Hospital/Nursing Management,24-8512411,Client,5660,905
"Moen, Stroman and Kling",09-7806074,Fort Lauderdale,"1786 Northeast 8th Avenue, Fort Lauderdale, Florida",-80.13529,26.13590,1103534.24,Other Consumer Services,28-0918580,Client,2516,1786
Padberg LLC,70-9706685,Delray Beach,"1651 Greensward Lane, Delray Beach, Florida",-80.10819,26.44916,3534745.27,Integrated oil Companies,52-9724857,Client,1309,1651
Schinner Inc,42-3839106,Fort Lauderdale,"747 Northeast 24th Way, Fort Lauderdale, Florida",-80.11447,26.13393,6221558.33,Farming/Seeds/Milling,53-1654920,Client,2397,747
Hermiston-MacGyver,32-0454074,Homestead,"1226 Northwest 7th Avenue, Homestead, Florida",-80.48657,25.47343,8001294.04,,24-4347580,Client,3375,1226
Wilkinson LLC,61-2757236,Miami,"1588 Southwest 29th Court, Miami, Florida",-80.24084,25.74236,2419934.33,Major Pharmaceuticals,51-1904344,Client,5000,1588
Pagac Inc,01-2908799,Delray Beach,"284 Violet Terrace, Delray Beach, Florida",-80.09882,26.44123,5144155.3,Food Distributors,39-2895784,Client,1849,284
"Morissette, Bruen and Bode",95-9070667,Delray Beach,"1938 Brandon Drive, Delray Beach, Florida",-80.11063,26.46980,7316180.97,Business Services,09-2401087,Client,1142,1938
"Schulist, Koelpin and Frami",51-1353226,Edgewater,"1088 Adele Street, Edgewater, Florida",-80.91174,28.98708,2430564.1,EDP Services,71-4745907,Client,1919,1088
"Marquardt, Ebert and Daugherty",00-9173990,Palmetto Bay,"964 Southwest 79th Avenue, Palmetto Bay, Florida",-80.32132,25.62944,9208321.66,Other Specialty Stores,81-6163621,Client,5765,964
Lindgren-Yundt,24-8279729,Deerfield Beach,"638 Northwest 15th Terrace, Deerfield Beach, Florida",-80.14492,26.29061,3750001.55,Other Specialty Stores,43-4943966,Client,638,638
"Frami, Breitenberg and DuBuque",96-2130574,Fort Lauderdale,"928 Southeast 22nd Avenue, Fort Lauderdale, Florida",-80.11545,26.09709,3767109.82,Real Estate Investment Trusts,00-1433990,Client,2861,928
Hintz-Rempel,17-2510858,Edgewater,"1130 Carlson Cove, Edgewater, Florida",-80.89477,28.97729,5761574.42,Real Estate Investment Trusts,47-6093446,Client,1941,1130
"Pfannerstill, Champlin and Jones",63-5013905,Miami,"1513 Matilda Street, Miami, Florida",-80.24361,25.73095,8289508.03,,25-9892880,Client,4411,1513
Rolfson Inc,03-1277002,Fort Lauderdale,"592 Northwest 53rd Court, Fort Lauderdale, Florida",-80.19679,26.19149,3506335.73,RETAIL: Building Materials,10-6701666,Client,2694,592
Macejkovic-Sporer,88-2812269,Delray Beach,"890 West Chatelaine Boulevard, Delray Beach, Florida",-80.11299,26.47178,170857.02,Oil & Gas Production,54-5995957,Client,1860,890
Bernier-Hills,13-3226777,Delray Beach,"63 Rainberry Lakes Drive, Delray Beach, Florida",-80.09374,26.47356,7745375.95,Specialty Foods,99-6976393,Client,1654,63
Gorczany Inc,43-4989066,Homestead,"776 Northeast 9th Street, Homestead, Florida",-80.41410,25.47851,6227313.08,Containers/Packaging,91-7907726,Client,3324,776
"Hessel, Cartwright and Ratke",89-7777877,Cutler Bay,"466 Southwest 225th Street, Cutler Bay, Florida",-80.33509,25.55752,1652581.93,Biotechnology: Biological Products (No Diagnostic Substances),93-7099516,Client,234,466
Torp and Sons,08-5562611,Pompano Beach,"538 Northwest 28th Court, Pompano Beach, Florida",-80.12475,26.26602,9277309.16,Real Estate Investment Trusts,57-5030802,Client,6416,538
Kunze-Wintheiser,97-0689464,Cutler Bay,"1861 Southwest 94th Path, Cutler Bay, Florida",-80.34553,25.55749,1923660.06,Railroads,25-8906880,Client,326,1861
Corkery-Kuvalis,86-9476074,Cutler Bay,"1318 Southwest 193rd Street, Cutler Bay, Florida",-80.35162,25.58786,444174.39,Finance/Investors Services,06-5596560,Client,133,1318
Heller-Bednar,54-6909278,Deerfield Beach,"794 Northwest 12th Avenue, Deerfield Beach, Florida",-80.13975,26.28417,4745567.11,Hospital/Nursing Management,36-3416702,Client,627,794
Emmerich-Donnelly,51-2357754,Cutler Bay,"1484 Southwest 189th Street, Cutler Bay, Florida",-80.33890,25.59124,1120225.53,Major Banks,90-5097259,Client,118,1484
"Hamill, Breitenberg and Marvin",74-0756086,Pinecrest,"1139 Southwest 107th Street, Pinecrest, Florida",-80.30056,25.67144,7591997.09,Real Estate Investment Trusts,11-0043967,Client,5870,1139
Parker Group,65-9227316,Pompano Beach,"1234 Northwest 15th Street, Pompano Beach, Florida",-80.13676,26.24574,703727.74,Real Estate Investment Trusts,61-7734785,Client,6351,1234
Bernier-Nolan,86-7710525,Pompano Beach,"1386 Northwest 3rd Terrace, Pompano Beach, Florida",-80.12773,26.24729,4204880.01,"Computer Software: Programming, Data Processing",43-7589290,Client,6450,1386
Weimann-Koss,69-0803787,Fort Lauderdale,"161 Northeast 42nd Court, Fort Lauderdale, Florida",-80.10040,26.18181,482799.62,Industrial Machinery/Components,05-0621905,Client,2455,161
Rutherford and Sons,10-3814997,Pinecrest,"1517 Southwest 125th Terrace, Pinecrest, Florida",-80.31916,25.65408,4775917.58,Forest Products,40-5913173,Client,5916,1517
Spencer and Sons,09-9590076,Pompano Beach,"816 Northwest 18th Terrace, Pompano Beach, Florida",-80.14887,26.26407,1909494.23,Other Consumer Services,19-5768326,Client,6372,816
Ankunding-Heidenreich,37-5696404,Fort Lauderdale,"1199 Northwest 14th Terrace, Fort Lauderdale, Florida",-80.16142,26.14449,122861.97,EDP Services,78-7207361,Client,2552,1199
"Dietrich, Larkin and Wisozk",48-9904952,Miami Gardens,"312 Northwest 24th Avenue, Miami Gardens, Florida",-80.24017,25.91353,2875597.36,,02-0323107,Client,5449,312
Franecki and Sons,86-3945621,Palmetto Bay,"360 Southwest 83rd Avenue, Palmetto Bay, Florida",-80.32692,25.61912,1126924.81,,42-8431205,Client,5780,360
DuBuque-Breitenberg,22-8660975,Delray Beach,"414 Banyan Drive, Delray Beach, Florida",-80.06793,26.43403,8624207.04,Real Estate Investment Trusts,40-0311328,Client,1109,414
Lemke-Luettgen,95-5922879,Pinecrest,"1620 Hemlock Avenue, Pinecrest, Florida",-82.03412,26.91875,4695.22,"Computer Software: Programming, Data Processing",70-6692991,Client,5832,1620
"Abbott, Bernier and Wuckert",19-2257479,Miami Gardens,"90 East Bunche Park Drive, Miami Gardens, Florida",-80.23363,25.91890,4884476.76,Finance: Consumer Services,03-3915526,Client,5173,90
"Runolfsson, Grant and Walter",12-3184684,Fort Lauderdale,"1358 Northwest 17th Court, Fort Lauderdale, Florida",-80.18587,26.14898,653859.68,Industrial Specialties,47-7155198,Client,2572,1358
Heller-Cremin,56-1480257,Deerfield Beach,"835 Hillsboro Technology Drive, Deerfield Beach, Florida",-80.11344,26.32195,5605988.91,Marine Transportation,46-2749415,Client,472,835
"Zemlak, Williamson and Hilll",19-1223267,Pompano Beach,"1448 Robbins Road, Pompano Beach, Florida",-80.08713,26.25650,8199504.72,Homebuilding,08-6121788,Client,6508,1448
Schimmel-Toy,68-8836869,Delray Beach,"932 Lake Court, Delray Beach, Florida",-80.07269,26.47184,601525.89,Commercial Banks,89-7947007,Client,1371,932
Fadel-Wintheiser,34-6013046,Deerfield Beach,"162 Southwest 5th Street, Deerfield Beach, Florida",-80.10498,26.31152,8822450.18,Electronic Components,90-3382295,Client,989,162
Hauck-Emard,97-2768962,Deerfield Beach,"15 Southwest 3rd Street, Deerfield Beach, Florida",-80.15094,26.31433,2217144.02,Other Specialty Stores,61-7451264,Client,968,15
Cole Inc,32-5581970,Homestead,"33 Southeast 14th Street, Homestead, Florida",-80.44692,25.45762,6603903.37,Telecommunications Equipment,43-9700973,Client,3494,33
Fahey Inc,11-6059823,Delray Beach,"1556 West Heritage Club Circle, Delray Beach, Florida",-80.06973,26.44614,8825982.34,Finance: Consumer Services,60-6678414,Client,1865,1556
Williamson-Runolfsdottir,40-0211632,Delray Beach,"1482 Avenue Serrant, Delray Beach, Florida",-80.10730,26.47062,3308323.09,Business Services,82-4142031,Client,1102,1482
Hagenes and Sons,73-3990918,Deerfield Beach,"174 Northwest 6th Court, Deerfield Beach, Florida",-80.10899,26.32637,346280.52,Electronic Components,53-3140146,Client,757,174
Padberg and Sons,44-3273647,Delray Beach,"1882 High Point Terrace East, Delray Beach, Florida",-80.10083,26.46022,2654058.21,,53-7336279,Client,1337,1882
"Pfannerstill, Murazik and Turner",20-5191318,Palmetto Bay,"1631 Southwest 139th Terrace, Palmetto Bay, Florida",-80.32811,25.64070,7378500.16,Catalog/Specialty Distribution,48-7158468,Client,5615,1631
Herzog Inc,26-2305613,Homestead,"923 North Curlew Lane, Homestead, Florida",-80.45346,25.46052,3944141.59,,49-0399816,Client,3182,923
Gibson Group,90-1133901,Miami,"153 Northwest 22nd Street, Miami, Florida",-80.21536,25.79776,9669244.43,EDP Services,26-1357900,Client,4650,153
"Kirlin, Hagenes and Kohler",86-8533957,Delray Beach,"1321 Oleander Lane, Delray Beach, Florida",-80.06395,26.45292,635339.82,,50-3179789,Client,1612,1321
"Lind, Ritchie and Pfeffer",44-1387750,Homestead,"13 Southeast 23th Avenue, Homestead, Florida",-80.44383,25.45912,2102777.72,Medical/Nursing Services,80-2210285,Client,3557,13
Lindgren-Schmeler,05-2300250,Miami,"1168 Southwest 33rd Court, Miami, Florida",-80.24993,25.75330,5391931.79,Real Estate Investment Trusts,10-7125882,Client,5027,1168
Davis Inc,92-5253832,Fort Lauderdale,"237 Southwest Gertrudis Place, Fort Lauderdale, Florida",-80.18367,26.09809,5479025.78,Computer Software: Prepackaged Software,27-1083509,Client,3061,237
"Pouros, Boyle and Bashirian",00-5713611,Pinecrest,"1755 SW 78th Avenue, Pinecrest, Florida",-80.32059,25.66711,7472469.3,Department/Specialty Retail Stores,30-4171230,Client,6050,1755
"Considine, Carter and Heathcote",96-6253739,Fort Lauderdale,"1761 Northeast 23rd Terrace, Fort Lauderdale, Florida",-80.11467,26.12667,49827.16,Business Services,57-2968873,Client,2390,1761
McCullough-Purdy,36-8971511,Deerfield Beach,"88 Northeast 51st Street, Deerfield Beach, Florida",-80.12099,26.29398,5112412.99,Biotechnology: In Vitro & In Vivo Diagnostic Substances,12-7945878,Client,596,88
Hane Inc,13-4395483,Miami,"1394 Southwest 20th Court, Miami, Florida",-80.22786,25.75859,5886959.47,,81-6520933,Client,4957,1394
Prosacco and Sons,86-3836533,Palmetto Bay,"524 Southwest 153rd Street, Palmetto Bay, Florida",-80.32653,25.62834,3843489.58,Major Banks,16-1797411,Client,5654,524
Sawayn Inc,53-9579380,Homestead,"609 South Bluebird Lane, Homestead, Florida",-80.45633,25.46127,2159096.05,Construction/Ag Equipment/Trucks,94-5659614,Client,3460,609
Larson Group,41-2577565,Miami,"1837 Northwest 51st Street, Miami, Florida",-80.21412,25.82193,947818.75,Natural Gas Distribution,32-2817272,Client,4740,1837
Ondricka-McGlynn,69-2971442,Miami,"1580 Northeast 82nd Street, Miami, Florida",-80.19277,25.84983,2465138.34,Major Banks,86-0564033,Client,4564,1580
"Jakubowski, Huels and Jakubowski",86-0588168,Cutler Bay,"1378 Southwest 103rd Place, Cutler Bay, Florida",-80.35995,25.57435,9517982.45,,62-7954857,Client,98,1378
Mraz Group,41-8595707,Kendall,"1012 Southwest 83rd Street, Kendall, Florida",-80.36240,25.69145,7820133.43,,65-0197607,Client,4117,1012
Gislason LLC,46-3276241,Deerfield Beach,"1074 Northeast 39th Street, Deerfield Beach, Florida",-80.11608,26.27886,9989185.46,Business Services,16-1952465,Client,550,1074
"Bins, Harber and Sanford",44-6822697,Cutler Bay,"513 Pan American Drive, Cutler Bay, Florida",-80.35401,25.57136,7082524.28,Real Estate Investment Trusts,22-3957693,Client,70,513
"Balistreri, Davis and Dare",29-1822260,Deerfield Beach,"201 Northwest 15th Avenue, Deerfield Beach, Florida",-80.14438,26.29067,8475514.16,Real Estate Investment Trusts,13-4489383,Client,637,201
Cummerata LLC,72-9422110,Miami,"483 Northwest 11th Terrace, Miami, Florida",-80.20315,25.78490,6215516.87,Medical/Dental Instruments,12-4132398,Client,4601,483
Kertzmann-Rau,50-0488301,Delray Beach,"1069 East Rainberry Circle, Delray Beach, Florida",-80.09977,26.47775,4476080.08,,93-8428418,Client,1256,1069
Kulas-McKenzie,39-3233349,Miami,"1149 Island Road, Miami, Florida",-80.18338,25.81932,8920151.1,Investment Bankers/Brokers/Service,31-6606604,Client,4370,1149
Schoen Group,80-8538266,Miami,"1774 Taluga Drive, Miami, Florida",-80.22406,25.74414,9986806.96,Major Pharmaceuticals,96-0567192,Client,5118,1774
Feest Inc,95-9051150,Deerfield Beach,"507 Lyndhurst J, Deerfield Beach, Florida",-80.13935,26.31075,5279737.64,Life Insurance,52-4630159,Client,507,507
McKenzie-Carroll,89-2194063,Delray Beach,"640 South Astor Circle, Delray Beach, Florida",-80.12350,26.45487,5420490.44,,19-3118481,Client,1702,640
Hahn and Sons,61-4329988,Delray Beach,"1016 Gleason Street, Delray Beach, Florida",-80.06070,26.45802,7630341.78,Major Chemicals,66-2379690,Client,1300,1016
Schmeler-Bailey,80-4173668,Delray Beach,"72 Southwest 20th Court, Delray Beach, Florida",-80.09305,26.44956,2450161.87,,78-8039337,Client,1765,72
Mertz Group,61-0409523,Palmetto Bay,"1011 Southwest 154th Terrace, Palmetto Bay, Florida",-80.32734,25.62715,2921677.64,Major Banks,78-0035746,Client,5658,1011
Parisian-Beahan,20-9226228,Fort Lauderdale,"631 East Oak Park Access Road, Fort Lauderdale, Florida",-80.10677,26.16768,1804127.49,Major Pharmaceuticals,27-4871685,Client,2233,631
Ritchie LLC,62-4279370,Palmetto Bay,"1455 Protected Natural Area (Authorized Access Only), Palmetto Bay, Florida",-80.30377,25.62426,2034212.42,Real Estate Investment Trusts,28-5510147,Client,5606,1455
Lebsack Group,07-5394243,Palmetto Bay,"1893 Southwest 150th Drive, Palmetto Bay, Florida",-80.32723,25.63097,6760679.73,,48-8076539,Client,5646,1893
"Keeling, Cummerata and Schroeder",06-4945852,Fort Lauderdale,"1111 Lauderway East, Fort Lauderdale, Florida",-80.16515,26.08565,7389215.82,Hotels/Resorts,92-9477411,Client,2279,1111
McClure-Ritchie,64-5299333,Homestead,"1932 Northeast 34th Avenue, Homestead, Florida",-80.42524,25.47838,5187930.89,Major Pharmaceuticals,84-2585620,Client,3275,1932
Kozey and Sons,53-9148019,Pompano Beach,"1914 Canal Drive, Pompano Beach, Florida",-80.08740,26.25319,3279939.71,Business Services,85-2411864,Client,6075,1914
Kuhn-Thompson,09-1894894,Miami,"1450 Northwest 55th Street, Miami, Florida",-80.20819,25.82567,671565.1,,27-5156520,Client,4748,1450
Baumbach-Labadie,86-9200125,Fort Lauderdale,"1641 Pelican Drive, Fort Lauderdale, Florida",-80.11261,26.12353,7753150.77,Business Services,92-9495880,Client,2771,1641
Becker-Armstrong,03-5609660,Delray Beach,"1955 Northeast 2nd Street, Delray Beach, Florida",-80.06857,26.46530,9286482.84,,05-6662135,Client,1478,1955
Schinner-Lynch,59-9207004,Miami Gardens,"1447 Northwest 200th Terrace, Miami Gardens, Florida",-80.21792,25.95799,7310861.96,Marine Transportation,23-2983415,Client,5391,1447
Corwin LLC,51-1190630,Pompano Beach,"1967 Fairway Drive, Pompano Beach, Florida",-80.16945,26.23956,8015719.43,,33-0493697,Client,6107,1967
Trantow LLC,77-9741323,Deerfield Beach,"831 Southwest 11th Street, Deerfield Beach, Florida",-80.11064,26.30326,6196244.74,Broadcasting,14-5807399,Client,888,831
"Collier, Romaguera and Klocko",78-0679280,Pompano Beach,"878 Park Central Boulevard North, Pompano Beach, Florida",-80.14190,26.26663,8595518.73,Services-Misc. Amusement & Recreation,32-8971825,Client,6498,878
"Eichmann, Deckow and Jenkins",82-4900931,Cutler Bay,"760 Southwest 220th Lane, Cutler Bay, Florida",-80.34449,25.56220,9701154.04,,37-5326521,Client,215,760
Rippin-Will,70-8799888,Homestead,"1295 Southwest 188th Avenue, Homestead, Florida",-80.49566,25.46973,4229908.08,,93-3621971,Client,3669,1295
"Blanda, Powlowski and Feeney",82-8393153,Pompano Beach,"1450 Southwest 1st Terrace, Pompano Beach, Florida",-80.12493,26.21663,9213785.91,Business Services,42-5108925,Client,6622,1450
"Trantow, Bosco and Heller",09-2753179,Delray Beach,"1009 Northwest 40th Terrace, Delray Beach, Florida",-80.10688,26.45906,3359406.78,Oil & Gas Production,33-4858173,Client,1568,1009
Stamm and Sons,30-5191712,Deerfield Beach,"1342 Prescott Drive, Deerfield Beach, Florida",-80.14814,26.30894,5313314.32,,02-6987904,Client,779,1342
"Beer, Nikolaus and Mosciski",07-9492714,Delray Beach,"88 Southwest 3rd Court, Delray Beach, Florida",-80.08317,26.45524,6221181.53,Oil & Gas Production,72-0634655,Client,1791,88
Gibson-Homenick,77-2210981,Delray Beach,"1680 Melaleuca Road, Delray Beach, Florida",-80.06294,26.45242,8049856.37,Business Services,09-6315745,Client,1431,1680
"Hilll, Kuphal and Langworth",30-7614886,Miami Gardens,"152 Northwest 168th Street, Miami Gardens, Florida",-80.24213,25.92761,43671.74,Marine Transportation,25-6333506,Client,5257,152
Kirlin LLC,88-2994886,Delray Beach,"1461 Southeast 6th Street, Delray Beach, Florida",-80.06791,26.45253,8746091.54,,72-9689367,Client,1733,1461
"Conroy, Kreiger and Fadel",36-0002165,Miami Gardens,"1195 Northwest 175th Terrace, Miami Gardens, Florida",-80.22892,25.93496,3741894.12,Major Pharmaceuticals,53-7394837,Client,5282,1195
Kemmer Inc,91-2157567,Fort Lauderdale,"1053 Flamingo Drive, Fort Lauderdale, Florida",-80.11493,26.11425,6884776.13,Real Estate Investment Trusts,56-8431354,Client,2240,1053
"Fay, Shanahan and Bergnaum",42-4312402,Deerfield Beach,"1017 Northeast 51st Street, Deerfield Beach, Florida",-80.11283,26.29377,8352085.09,Construction/Ag Equipment/Trucks,10-0682264,Client,594,1017
"Beer, Kertzmann and Monahan",05-0819839,Deerfield Beach,"174 Camellia Court, Deerfield Beach, Florida",-80.12127,26.32599,5121713.33,,02-4591486,Client,381,174
"Rosenbaum, Kirlin and Nader",51-1791779,Kendall,"1551 Southwest 80th Drive, Kendall, Florida",-80.35292,25.69412,2182793.04,Newspapers/Magazines,84-4271907,Client,4096,1551
Jakubowski-Mitchell,07-9942935,Cutler Bay,"913 Southwest 222nd Street, Cutler Bay, Florida",-80.35274,25.56090,8602041.2,Natural Gas Distribution,41-9378705,Client,225,913
Hintz-Erdman,55-6370046,Miami,"1378 Northwest 42nd Street, Miami, Florida",-80.21369,25.81435,9098688.21,Major Pharmaceuticals,97-2189452,Client,4713,1378
Schultz-Lakin,20-4591616,Pompano Beach,"1869 Northwest 17th Lane, Pompano Beach, Florida",-80.14773,26.26229,7958488.04,Investment Managers,42-2801256,Client,6364,1869
Spinka Group,42-4081869,Kendall,"1103 Kendale Boulevard, Kendall, Florida",-80.36118,25.68020,267981.65,Movies/Entertainment,71-2031902,Client,3764,1103
Tillman-Gaylord,78-4129395,Delray Beach,"1994 Commodore Circle, Delray Beach, Florida",-80.06715,26.42156,5521833.76,Oil Refining/Marketing,65-7452793,Client,1189,1994
"Williamson, Rodriguez and Lubowitz",10-7987771,Pinecrest,"1956 Southwest 71st Avenue, Pinecrest, Florida",-80.30991,25.67692,6137273.34,Telecommunications Equipment,76-0102550,Client,5992,1956
Weber-Nicolas,33-2024634,Pompano Beach,"1304 Northeast 41st Drive, Pompano Beach, Florida",-80.10655,26.28204,4306637.31,Natural Gas Distribution,17-2057013,Client,6276,1304
Howell Inc,69-1217777,Delray Beach,"1063 Hamlet Drive, Delray Beach, Florida",-80.11251,26.45171,2915467.42,Office Equipment/Supplies/Services,01-8409282,Client,1313,1063
McDermott and Sons,85-3123003,Deerfield Beach,"1990 Northwest 5th Drive, Deerfield Beach, Florida",-80.16047,26.32381,3197728.49,,13-6267582,Client,751,1990
Smith-Koss,30-8764688,Delray Beach,"794 Linton Lake Drive, Delray Beach, Florida",-80.09725,26.43785,7603892.45,Real Estate Investment Trusts,60-9383266,Client,1408,794
"Cartwright, Trantow and Bradtke",42-9179646,Kendall,"661 Southwest 84th Court, Kendall, Florida",-80.33068,25.68934,5501176.31,Metal Fabrications,52-4662025,Client,4121,661
"Keeling, Kub and Hirthe",63-4662102,Delray Beach,"150 West Pineridge Court, Delray Beach, Florida",-80.06880,26.48605,2287292.2,Electric Utilities: Central,48-1848342,Client,1876,150
Nitzsche-Denesik,52-9394872,Homestead,"1257 Northwest 11th Street, Homestead, Florida",-80.48953,25.48073,867502.21,,63-6255265,Client,3332,1257
"Wolf, Runte and Heidenreich",37-8056766,Pompano Beach,"299 Northwest 9th Street, Pompano Beach, Florida",-80.12531,26.24017,3155204.33,Commercial Banks,81-1124141,Client,6483,299
Lehner and Sons,96-9304139,Pinecrest,"1667 Southwest 88th Terrace, Pinecrest, Florida",-80.30362,25.68846,5904881.37,Trucking Freight/Courier Services,13-0192580,Client,6034,1667
Nicolas-McClure,05-6793654,Miami Gardens,"365 Northwest 16th Court, Miami Gardens, Florida",-80.22765,25.91643,1484008.16,Business Services,04-6129912,Client,5265,365
Kutch-Walter,04-3621590,Fort Lauderdale,"1164 Southwest 14th Street, Fort Lauderdale, Florida",-80.19139,26.10292,8682137.76,Computer Software: Prepackaged Software,54-9987982,Client,2919,1164
"Morar, Aufderhar and Nikolaus",74-5158103,Deerfield Beach,"44 Cambridge D, Deerfield Beach, Florida",-80.13342,26.31270,5222107.6,,21-2105612,Client,377,44
Bergstrom Inc,27-8658830,Kendall,"1516 Southwest 116th Terrace, Kendall, Florida",-80.37899,25.65982,7914304.72,Other Specialty Stores,02-6612703,Client,3937,1516
"Weber, Bauch and Morissette",11-8380433,Palmetto Bay,"1348 Southwest 82nd Place, Palmetto Bay, Florida",-80.32599,25.60995,478074.26,"Computer Software: Programming, Data Processing",25-2893205,Client,5778,1348
Dach Group,71-2449434,Delray Beach,"1031 Bauhinia Road, Delray Beach, Florida",-80.06250,26.45022,2694616.84,Savings Institutions,30-9832295,Client,1113,1031
Stanton-Gerhold,99-5375856,Delray Beach,"921 West Chrystie Circle, Delray Beach, Florida",-80.12344,26.45322,9924777.29,,14-2383502,Client,1861,921
Koss LLC,78-1642323,Fort Lauderdale,"1007 Southwest 23rd Street, Fort Lauderdale, Florida",-80.16258,26.09399,8611501.15,Marine Transportation,05-2355652,Client,2969,1007
O'Keefe-Shields,80-7708294,Delray Beach,"350 Northwest 7th Avenue, Delray Beach, Florida",-80.08031,26.46539,6986977.99,,66-7650026,Client,1592,350
"Bernhard, Batz and Pagac",03-0162926,Fort Lauderdale,"79 Northwest 16th Avenue, Fort Lauderdale, Florida",-80.16700,26.20846,930769.57,Business Services,09-2043714,Client,2563,79
Hyatt LLC,39-7923587,Pompano Beach,"325 Laguna Pointe Appartments, Pompano Beach, Florida",-80.13614,26.21118,5717869.75,Computer Software: Prepackaged Software,80-1695554,Client,6120,325
"Koelpin, Jones and Schuppe",66-6352231,Miami,"1094 Trapp Avenue, Miami, Florida",-80.23703,25.73407,4292400.71,Real Estate Investment Trusts,54-5718844,Client,5123,1094
Kutch-Hudson,04-2539658,Fort Lauderdale,"1514 Northwest 22nd Way, Fort Lauderdale, Florida",-80.17343,26.15677,8941832.99,Steel/Iron Ore,93-8460965,Client,2608,1514
Will-Davis,21-1893305,Deerfield Beach,"359 Northeast 51st Street, Deerfield Beach, Florida",-80.12099,26.29398,4550530.66,Office Equipment/Supplies/Services,10-5709322,Client,596,359
Boyle Group,66-1999063,Miami,"1642 Southwest 17th Court, Miami, Florida",-80.22345,25.77132,9829769.95,Marine Transportation,48-2641337,Client,4937,1642
Thiel-Willms,85-7836537,Deerfield Beach,"1856 Oakridge U, Deerfield Beach, Florida",-80.13885,26.30593,6472793.08,Hospital/Nursing Management,01-4011720,Client,774,1856
Hamill LLC,99-1962673,Kendall,"1243 Southwest 81st Court, Kendall, Florida",-80.32468,25.68916,4567046.54,Major Pharmaceuticals,39-2745164,Client,4101,1243
O'Conner LLC,00-9340995,Pompano Beach,"1252 Northeast 49th Street, Pompano Beach, Florida",-80.09789,26.29162,5754657.79,Business Services,97-4681207,Client,6288,1252
Weissnat Inc,37-8539131,Pompano Beach,"550 North Eastern Terrace, Pompano Beach, Florida",-80.09909,26.28586,2903067.13,Publishing,55-8619401,Client,6141,550
"Cole, Murazik and Parisian",78-4623347,Fort Lauderdale,"1826 State Road 7, Fort Lauderdale, Florida",-80.20103,26.09324,5452559.57,Life Insurance,95-2702412,Client,3065,1826
"Denesik, Huel and Kuhic",49-3665160,Miami,"226 Via Abitare, Miami, Florida",-80.24515,25.72682,7642409.86,Semiconductors,56-0221423,Client,5130,226
"Keeling, Schmitt and McDermott",80-4219839,Delray Beach,"1795 Southwest 20th Avenue, Delray Beach, Florida",-80.09262,26.45824,7621049.72,Marine Transportation,34-7039360,Client,1764,1795
"Braun, Abshire and Hamill",22-0578756,Miami,"1328 Southwest 73rd Court, Miami, Florida",-80.31471,25.76333,7665707.22,Oil Refining/Marketing,88-9907685,Client,5095,1328
Swift-Altenwerth,24-2812589,Deerfield Beach,"1512 Northwest 9th Way, Deerfield Beach, Florida",-80.13660,26.29191,7331400.31,Natural Gas Distribution,26-0149731,Client,765,1512
McGlynn Group,40-1763238,Deerfield Beach,"914 Southwest 1st Court, Deerfield Beach, Florida",-80.10491,26.31696,9905539.94,Real Estate Investment Trusts,08-2785918,Client,923,914
Becker Group,66-3405965,Delray Beach,"1822 Salina Avenue, Delray Beach, Florida",-80.05920,26.46087,4440088.76,Business Services,92-4207205,Client,1673,1822
"Goldner, Borer and Torp",21-3009754,Deerfield Beach,"755 Southeast 8th Terrace, Deerfield Beach, Florida",-80.09222,26.29643,4842999.67,,76-2291559,Client,872,755
Abernathy Group,86-1174003,Miami,"1028 Northwest 23rd Place, Miami, Florida",-80.23469,25.77766,6928141.04,,73-8743174,Client,4653,1028
"Towne, Schowalter and Marquardt",41-4066381,Edgewater,"133 Valencia Drive, Edgewater, Florida",-80.90948,28.99912,8572440.9,Diversified Commercial Services,01-5965218,Client,2127,133
Hintz and Sons,64-2731638,Fort Lauderdale,"722 Northeast 66th Street, Fort Lauderdale, Florida",-80.11180,26.20908,744233.25,Oilfield Services/Equipment,62-2847880,Client,2506,722
Larkin-Halvorson,47-9306584,Miami,"1009 Southwest 17th Avenue, Miami, Florida",-80.22198,25.75093,5316046.48,Construction/Ag Equipment/Trucks,95-2249280,Client,4935,1009
Mills LLC,50-5572068,Miami,"1783 Northwest 48th Street, Miami, Florida",-80.20585,25.81978,1180218.85,Auto Parts:O.E.M.,81-5740575,Client,4727,1783
"Emmerich, Rippin and Schulist",51-9356021,Fort Lauderdale,"1893 Southwest 12th Court, Fort Lauderdale, Florida",-80.19653,26.10600,1865171.15,Major Banks,39-3184548,Client,2905,1893
O'Keefe and Sons,35-4436489,Miami,"1460 Southeast 26th Road, Miami, Florida",-80.20440,25.75073,1943581.25,Restaurants,11-6878713,Client,4904,1460
Hettinger LLC,92-3448700,Delray Beach,"419 Southwest 3rd Street, Delray Beach, Florida",-80.10294,26.45688,9907789.56,Real Estate Investment Trusts,39-2878656,Client,1793,419
Kulas-Bosco,74-4816223,Kendall,"336 Southwest 110th Avenue, Kendall, Florida",-80.37442,25.68529,4875836.34,Industrial Specialties,32-9433603,Client,3866,336
Feil LLC,59-0587745,Fort Lauderdale,"1445 Northeast 33rd Avenue, Fort Lauderdale, Florida",-80.10219,26.16167,5773914.55,Major Pharmaceuticals,79-2697545,Client,2432,1445
Hermann and Sons,79-9070141,Miami Gardens,"1446 Northwest 9th Place, Miami Gardens, Florida",-80.21900,25.96995,9634518.09,Integrated oil Companies,19-3006093,Client,5560,1446
Trantow-Stoltenberg,70-4910629,Fort Lauderdale,"1961 Northeast 64th Street, Fort Lauderdale, Florida",-80.11688,26.20660,4814925.17,Biotechnology: Electromedical & Electrotherapeutic Apparatus,80-0903905,Client,2503,1961
"Gleason, Barrows and Altenwerth",78-8448252,Miami,"747 Northwest 46th Street, Miami, Florida",-80.21193,25.81738,5609824.53,Major Banks,96-7017743,Client,4720,747
"Grady, Kling and Bernier",37-1744606,Miami Gardens,"162 Northwest 195th Lane, Miami Gardens, Florida",-80.24996,25.95235,1877759.3,Specialty Chemicals,46-7514066,Client,5362,162
Prohaska Group,24-7371878,Fort Lauderdale,"811 Coconut Drive, Fort Lauderdale, Florida",-80.16038,26.09862,8749247.1,Radio And Television Broadcasting And Communications Equipment,34-5851469,Client,2202,811
Hayes-Corkery,22-0285840,Delray Beach,"1907 Lowson Boulevard, Delray Beach, Florida",-80.09474,26.44620,6285941,Investment Managers,44-6250771,Client,1413,1907
"Lemke, Labadie and O'Hara",10-2542248,Homestead,"1980 Northeast 32 Terrace, Homestead, Florida",-80.42869,25.47376,225908.98,Computer Software: Prepackaged Software,71-6965643,Client,3268,1980
Weber Inc,42-3580323,Delray Beach,"1917 Eve Street, Delray Beach, Florida",-80.06900,26.43783,1923143.55,Computer Software: Prepackaged Software,42-1248311,Client,1270,1917
"Brekke, Jacobs and Parisian",94-7902614,Fort Lauderdale,"706 Northwest 28th Terrace, Fort Lauderdale, Florida",-80.18265,26.20741,4894150.08,Auto Manufacturing,47-4660026,Client,2640,706
Ruecker Inc,60-5545470,Deerfield Beach,"1188 Lob Lolly Lane, Deerfield Beach, Florida",-80.13643,26.32584,5622967.17,Medical Specialities,91-9513412,Client,496,1188
Reynolds Group,44-3016660,Fort Lauderdale,"1293 Southwest 27th Way, Fort Lauderdale, Florida",-80.17844,26.10287,1223478.83,,96-1641423,Client,2990,1293
"Kunde, Dare and Schinner",67-9308834,Homestead,"1287 South Fieldlark Lane, Homestead, Florida",-80.45913,25.45791,1519105.49,,29-9594223,Client,3464,1287
Jerde LLC,90-9456933,Kendall,"1353 Southwest 150th Street, Kendall, Florida",-80.34380,25.63068,5232546.63,,62-8192194,Client,4039,1353
Bernhard LLC,96-8899368,Deerfield Beach,"1730 Northwest 40th Street, Deerfield Beach, Florida",-80.12876,26.28008,6607167.97,Major Banks,14-7126170,Client,685,1730
Stracke-Schinner,59-9536863,Delray Beach,"901 Southwest 20th Terrace, Delray Beach, Florida",-80.09325,26.42647,1938556.17,Major Banks,35-7863141,Client,1766,901
"Bergnaum, Reynolds and Ryan",30-5206817,Pompano Beach,"146 Southwest 7th Street, Pompano Beach, Florida",-80.12649,26.22059,5028741.15,Apparel,31-1258152,Client,6660,146
Gerlach-Casper,40-5351143,Miami Gardens,"1734 Northwest 11th Place, Miami Gardens, Florida",-80.22060,25.94591,4165969.44,Commercial Banks,65-9360016,Client,5209,1734
Mante and Sons,96-1479684,Miami Gardens,"1248 Kings Garden Lane, Miami Gardens, Florida",-80.26776,25.93836,7317410.45,Commercial Banks,57-3026941,Client,5181,1248
"Ritchie, Homenick and Zboncak",60-2705833,Pompano Beach,"1687 Southeast 25th Avenue, Pompano Beach, Florida",-80.09889,26.22774,6204962.89,,85-1550880,Client,6557,1687
Kris-Cassin,19-2993638,Fort Lauderdale,"1964 Northwest 53rd Street, Fort Lauderdale, Florida",-80.19489,26.18962,6063323.85,Real Estate Investment Trusts,74-0868351,Client,2696,1964
"McLaughlin, Bartell and Beatty",72-7244632,Miami,"66 Southwest 73rd Avenue, Miami, Florida",-80.31395,25.76612,839228.51,Savings Institutions,11-0854151,Client,5094,66
Runolfsdottir and Sons,50-7758150,Deerfield Beach,"812 Northeast 7th Avenue, Deerfield Beach, Florida",-80.11458,26.28963,29151.8,Homebuilding,69-4178771,Client,612,812
McLaughlin LLC,28-2089123,Miami,"217 Delaware Parkway, Miami, Florida",-80.24418,25.79295,4968105.3,Newspapers/Magazines,03-1015410,Client,4320,217
Swift LLC,70-1619355,Miami,"514 Northwest 29th Court, Miami, Florida",-80.24262,25.78922,4250352.09,Business Services,71-6086880,Client,4670,514
Swift LLC,70-1619355,Miami,"514 Northwest 29th Court, Miami, Florida",-80.24262,25.78922,4250352.09,Business Services,71-2031902,Client,4670,514
Swift LLC,70-1619355,Miami,"514 Northwest 29th Court, Miami, Florida",-80.24262,25.78922,4250352.09,Business Services,11-8834631,Client,4670,514
"Labadie, Yundt and Wintheiser",88-2239594,Pinecrest,"491 Southwest 125th Terrace, Pinecrest, Florida",-80.31916,25.65408,1453210.49,Catalog/Specialty Distribution,04-2112569,Client,5916,491
"Kiehn, Braun and Bailey",74-1759601,Pompano Beach,"1888 Northeast 16th Street, Pompano Beach, Florida",-80.11905,26.24972,3121057.5,Clothing/Shoe/Accessory Stores,78-6327175,Client,6184,1888
"Dicki, Hansen and O'Hara",08-3328571,Fort Lauderdale,"1940 Southeast 7th Street, Fort Lauderdale, Florida",-80.12457,26.11366,170369.5,Broadcasting,45-5652221,Client,2890,1940
Hagenes and Sons,91-4290019,Deerfield Beach,"1556 Southwest 1st Court, Deerfield Beach, Florida",-80.10491,26.31696,3134831.35,Major Banks,97-8179556,Client,923,1556
Waters Inc,31-1829722,Miami Gardens,"773 Northwest 29th Place, Miami Gardens, Florida",-80.25087,25.94910,7627388.74,Oil & Gas Production,14-8866128,Client,5470,773
Cormier Inc,92-8025516,Cutler Bay,"1463 Southwest 202nd Terrace, Cutler Bay, Florida",-80.36138,25.57899,614598.3,Biotechnology: In Vitro & In Vivo Diagnostic Substances,17-4185881,Client,159,1463
Rath-Hagenes,87-6649423,Kendall,"49 Southwest 137th Terrace, Kendall, Florida",-80.33940,25.64245,6636059.3,Water Supply,27-7257033,Client,4019,49
Yost-McDermott,70-0165885,Miami,"578 Northwest 19th Terrace, Miami, Florida",-80.20139,25.79413,3775103.16,,81-9149335,Client,4638,578
Bernier-Cummerata,91-1171071,Homestead,"224 Southwest 137th Avenue, Homestead, Florida",-80.41206,25.45479,3700164.71,,22-6896576,Client,3649,224
Witting-Hilpert,74-1689190,Homestead,"1407 South Questal Court, Homestead, Florida",-80.45888,25.46123,4556791.78,,17-2380805,Client,3471,1407
"Wiza, Smitham and Brown",74-7226362,Miami,"221 Southwest 12th Street, Miami, Florida",-80.22631,25.76155,3315931.47,Aerospace,61-2190070,Client,4921,221
Emmerich-Koch,62-0974850,Deerfield Beach,"674 Harwood B, Deerfield Beach, Florida",-80.13505,26.30701,3558947.86,Real Estate Investment Trusts,42-2616597,Client,459,674
Swaniawski-Bauch,69-4297800,Fort Lauderdale,"563 Sunset Mhp, Fort Lauderdale, Florida",-80.17693,26.11800,4369983.67,,79-8727597,Client,3071,563
Lockman-Schmeler,13-8216141,Kendall,"1251 Southwest 90th Lane, Kendall, Florida",-80.37688,25.68433,1677217.01,Major Banks,09-7293247,Client,4161,1251
Gislason-Vandervort,76-6038355,Fort Lauderdale,"210 Flamingo Lane, Fort Lauderdale, Florida",-80.19160,26.08950,8682660,Major Banks,04-1734696,Client,2241,210
"Leffler, Johns and Heaney",81-9276708,Pompano Beach,"246 Northwest 19th Terrace, Pompano Beach, Florida",-80.14975,26.23610,810800.45,Real Estate Investment Trusts,63-4866696,Client,6377,246
"Carroll, Stroman and Bradtke",93-0941950,Pompano Beach,"962 Northeast 51st Court, Pompano Beach, Florida",-80.10114,26.29443,6908922.74,Electric Utilities: Central,31-3117710,Client,6295,962
Hessel-Hudson,74-5806888,Fort Lauderdale,"210 Northeast 9th Avenue, Fort Lauderdale, Florida",-80.13520,26.20422,891093.78,,62-4358528,Client,2521,210
Jacobson Inc,64-7862498,Delray Beach,"77 Lake Court, Delray Beach, Florida",-80.07269,26.47184,6123273.23,Major Banks,42-4471781,Client,1371,77
"Hauck, Blanda and Kessler",52-8933738,Homestead,"393 Northeast 37th Place, Homestead, Florida",-80.42099,25.48230,4270608.52,Business Services,66-7871107,Client,3281,393
Jacobs LLC,30-7171512,Fort Lauderdale,"150 Northeast 24th Avenue, Fort Lauderdale, Florida",-80.11678,26.17250,1027976.76,,43-3622553,Client,2392,150
Schamberger-Greenholt,06-4303033,Pompano Beach,"472 Northwest 5th Avenue, Pompano Beach, Florida",-80.13036,26.27490,123616.26,Business Services,88-0195752,Client,6459,472
McClure-Bosco,95-8492235,Deerfield Beach,"1775 Northeast 7th Street, Deerfield Beach, Florida",-80.07761,26.32089,8156485.67,Industrial Machinery/Components,21-8752336,Client,615,1775
"Torphy, Barrows and Hayes",09-7492464,Deerfield Beach,"541 Deer Creek Trail, Deerfield Beach, Florida",-80.13522,26.32260,7300189.12,Marine Transportation,34-1441642,Client,402,541
Volkman-Klocko,32-8084087,Deerfield Beach,"1098 Indepence Drive, Deerfield Beach, Florida",-80.16155,26.29936,1073632.26,Business Services,77-1644893,Client,475,1098
Mertz-Kihn,23-0188295,Deerfield Beach,"1494 Northeast 44th Street, Deerfield Beach, Florida",-80.11751,26.28483,4324512.93,Life Insurance,89-5128045,Client,565,1494
Cremin-Grimes,27-8282781,Miami,"1721 Battersea Road, Miami, Florida",-80.25415,25.71008,3614208.58,Mining & Quarrying of Nonmetallic Minerals (No Fuels),35-6979859,Client,4263,1721
Kassulke Inc,26-7243713,Miami,"162 Frantz Road, Miami, Florida",-80.26044,25.72177,6922114.36,Business Services,81-1371892,Client,4346,162
Wintheiser-Friesen,20-4435242,Pompano Beach,"1579 Northwest 29th Manor, Pompano Beach, Florida",-80.15696,26.26730,4428290.88,Major Pharmaceuticals,52-2212275,Client,6420,1579